amenity,name,city,longitude,latitude,address
Hospital,Eastern State Hospital,Medical Lake,-117.6939507,47.57314563,850 Maple Street   P.O. Box A
Hospital,Madigan Army Medical Center,Tacoma,-122.5522702,47.10866977,9040 Jackson Avenue
Hospital,PeaceHealth United General Medical Center,Sedro-Woolley,-122.2763179,48.49608592,2000 Hospital Drive
Hospital,Mid-Valley Hospital ,Omak,-119.5465259,48.39656746,810 Jasmine
Hospital,St Joseph Medical Center ,Tacoma,-122.4481749,47.24599096,1717 South J St
Hospital,Mason General Hospital ,Shelton,-123.1144149,47.22589089,901 Mountain View Drive
Hospital,Arbor Health,Morton,-122.2803544,46.55567481,521 Adams St
Hospital,Snoqualmie Valley Health,Snoqualmie,-121.8857254,47.51269649,9801 Frontier Avenue SE
Hospital,Naval Hospital - Bremerton,Bremerton,-122.6915605,47.59499772,One Boone Road
Hospital,Jonathan M. Wainwright Memorial VA Medical Center,Walla Walla,-118.3585033,46.05355341,77 Wainwright Drive
Hospital,Lake Chelan Health,Chelan,-120.0096126,47.84497018,503 Highland Ave E
Hospital,North Valley Hospital ,Tonasket,-119.4387312,48.70700188,203 South Western Avenue
Hospital,Ocean Beach Hospital,Ilwaco,-124.0426308,46.3114343,174 1st Avenue North
Hospital,Willapa Harbor Hospital,South Bend,-123.8122912,46.66282084,800 Alder Street
Hospital,Whitman Hospital,Colfax,-117.3760498,46.86893031,1200 West Fairview
Hospital,Skyline Health,White Salmon,-121.4705307,45.72237924,211 Skyline Dr
Hospital,American Lake VA Medical Center,Tacoma,-122.578496,47.13330056,9600 Veterens Drive SW
Hospital,Providence Holy Family Hospital ,Spokane,-117.4067251,47.70975442,5633 N. Lidgerwood
Hospital,Odessa Memorial Healthcare Center,Odessa,-118.6825045,47.33118914,502 E. Amende Dr
Hospital,Othello Community Hospital ,Othello,-119.1552615,46.83040883,315 N. 14th Ave
Hospital,PeaceHealth St. John Medical Center ,Longview,-122.9417492,46.13069363,1615 Delaware St
Hospital,Skagit Valley Hospital ,Mount Vernon,-122.3240431,48.41786968,300 Hospital Parkway
Hospital,Providence St. Joseph's Hospital,Chewelah,-117.710804,48.27776203,500 East Webster Ave
Hospital,Confluence Health Hospital Central Campus,Wenatchee,-120.3210305,47.40660465,1201 South Miller Street
Hospital,East Adams Rural Healthcare,Ritzville,-118.3718866,47.12121882,903 South Adams St
Hospital,Trios Southridge Hospital,Kennewick,-119.1925506,46.17765279,3810 Plaza Way
Hospital,Kittitas Valley Healthcare,Ellensburg,-120.5378963,46.98709397,603 Chestnut St S
Hospital,Klickitat Valley Health,Goldendale,-120.811106,45.82018033,310 South Roosevelt Ave
Hospital,Lourdes Medical Center,Pasco,-119.0953861,46.2350256,520 N. Fourth Ave
Hospital,Pullman Regional Hospital,Pullman,-117.1697699,46.71250692,835 SE Bishop Boulevard
Hospital,Providence St. Mary Medical Center ,Walla Walla,-118.343197,46.06222765,401 W. Poplar St
Hospital,Multicare Deaconess Hospital ,Spokane,-117.4233528,47.65195728,800 West Fifth Avenue
Hospital,Providence Sacred Heart Medical Center & Childrens Hospital,Spokane,-117.4130368,47.64890503,101 West 8th Ave
Hospital,Shriners Hospital for Children,Spokane,-117.4256712,47.65090241,911 West Fifth Avenue
Hospital,PeaceHealth Southwest Medical Center ,Vancouver,-122.580727,45.6244375,400 NE Mother Joseph Place
Hospital,Swedish First Hill,Seattle,-122.3216211,47.60866127,747 Broadway
Hospital,Multicare Valley Hospital ,Spokane Valley,-117.235471,47.67076432,12606 Mission Ave E
Hospital,Mann-Grandstaff VA Medical Center,Spokane,-117.4776959,47.70247292,4815 North Assembly St.
Hospital,Providence St. Lukeâ€™s Rehabilitation Medical Center,Spokane,-117.4090849,47.64900739,711 South Cowley St
Hospital,MultiCare Auburn Medical Center,Auburn,-122.2290358,47.30891355,202 North Division St
Hospital,Seattle Children's,Seattle,-122.282083,47.66256824,4800 Sandpoint Way NE
Hospital,Astria Toppenish Hospital ,Toppenish,-120.3170575,46.37084484,502 4th Ave W
Hospital,UW Medicine - UW Medical Center Montlake ,Seattle,-122.3092606,47.65085814,1959 NE Pacific St
Hospital,Cascade Valley Hospital,Arlington,-122.1189459,48.18891955,330 S. Stillaguamish Ave
Hospital,Providence Regional Medical Center Everett,Everett,-122.2057095,47.99989375,1700 13th Street
Hospital,EvergreenHealth,Kirkland,-122.1784011,47.71589108,12040 NE 128th St
Hospital,Ferry County Hospital,Republic,-118.7314009,48.65304137,36 North Klondike Road
Hospital,UW Medicine - Valley Medical Center,Renton,-122.2139653,47.44277805,400 S. 43rd St
Hospital,Navos,Seattle,-122.3666091,47.53472482,2600 SW Holden Street
Hospital,Swedish Edmonds,Edmonds,-122.334357,47.80321628,21601 76th Ave W
Hospital,Western State Hospital,Tacoma,-122.565735,47.17831998,9601 Steilacoom Boulevard Sw
Hospital,Three Rivers Hospital ,Brewster,-119.7826329,48.10622607,507 Hospital Way
Hospital,St. Michael Medical Center,Silverdale,-122.6754058,47.65554835,1800 NW Myhre Rd
Hospital,Naval Hospital Oak Harbor,Oak Harbor,-122.6812128,48.33645899,3475 N. Saratoga St.
Hospital,Coulee Medical Center,Grand Coulee,-119.0069933,47.94222347,411 Fortuyn Rd
Hospital,Prosser Memorial Health,Prosser,-119.7640471,46.20808244,723 Memorial St
Hospital,Providence Centralia Hospital ,Centralia,-122.9882551,46.71153836,914 South Scheuber Road
Hospital,Quincy Valley Medical Center,Quincy,-119.8681723,47.2309067,908 10th Ave SW
Hospital,Confluence Health Hospital Mares Campus,Wenatchee,-120.3230866,47.43352928,820 N. Chelan Avenue
Hospital,Newport Hospital & Health Services,Newport,-117.0491978,48.1824222,714 West Pine St.
Hospital,Garfield County Hospital District,Pomeroy,-117.6029482,46.47549923,66 N 6th Street
Hospital,Cascade Medical,Leavenworth,-120.6607868,47.5944512,817 Commercial St
Hospital,Columbia Basin Hospital,Ephrata,-119.5467757,47.3145882,200 Nat Washington Way
Hospital,Dayton General Hospital,Dayton,-117.9702539,46.31210477,1012 S 3rd St
Hospital,Forks Community Hospital,Forks,-124.392588,47.94620735,530 Bogachiel Way
Hospital,Harbor Regional Health,Aberdeen,-123.847186,46.97923558,915 Anderson Dr
Hospital,Island Health - Main Campus,Anacortes,-122.6156668,48.50192875,1211 24th St
Hospital,Jefferson Healthcare Medical Center,Port Townsend,-122.7892732,48.10604332,834 Sheridan St
Hospital,Kadlec Regional Medical Center,Richland,-119.281956,46.28134338,888 Swift Blvd
Hospital,Lincoln Hospital,Davenport,-118.1453598,47.65792772,10 Nicholls St
Hospital,Providence Mount Carmel Hospital,Colville,-117.8927485,48.54067179,982 E Columbia Ave
Hospital,Olympic Medical Center,Port Angeles,-123.4150271,48.11555567,939 Caroline St
Hospital,PeaceHealth St. Joseph Medical Center,Bellingham,-122.4731864,48.77331595,2901 Squalicum Parkway
Hospital,Samaritan Healthcare,Moses Lake,-119.2651887,47.12816325,801 E. Wheeler Rd
Hospital,Astria Sunnyside Hospital ,Sunnyside,-120.0066818,46.32247961,1016 Tacoma Avenue
Hospital,Tri-State Health,Clarkston,-117.0543594,46.40286173,1221 Highland Ave
Hospital,MultiCare Mary Bridge Children's Hospital,Tacoma,-122.4546342,47.25971667,317 Martin Luther King Jr Way
Hospital,WhidbeyHealth,Coupeville,-122.6843268,48.2138933,101 North Main Street
Hospital,Virginia Mason Medical Center,Seattle,-122.3279739,47.6088249,1100 Ninth Avenue
Hospital,MultiCare Capital Medical Center,Olympia,-122.9517868,47.04273091,3900 Capital Mall Dr SW
Hospital,Lourdes Counseling Center,Richland,-119.2813075,46.28312741,1175 Carondelet Drive
Hospital,Swedish Ballard,Seattle,-122.3795497,47.66737354,5300 Tallman Ave NW
Hospital,VA Puget Sound Health Care,Seattle,-122.3080257,47.56323103,1660 S. Columbian Way
Hospital,UW Medicine - Harborview Medical Center,Seattle,-122.3239889,47.60386014,325 Ninth Ave
Hospital,UW Medicine - UW Medical Center Northwest ,Seattle,-122.3388513,47.71334434,1550 North 115th St
Hospital,Overlake Medical Center ,Bellevue,-122.1871752,47.62049135,1035 116th Ave NE
Hospital,MultiCare Yakima Memorial,Yakima,-120.5479466,46.59374521,2811 Tieton Drive
Hospital,Fairfax Behavioral Health - Kirkland,Kirkland,-122.2042734,47.71912215,10200 NE 132nd St
Hospital,EvergreenHealth Monroe,Monroe,-121.9897997,47.86421991,14701 179th Ave SE
Hospital,MultiCare Good Samaritan Hospital,Puyallup,-122.28953,47.17918,401 15th Ave SE
Hospital,Swedish Cherry Hill,Seattle,-122.3105979,47.60772122,500 17th Ave
Hospital,St. Elizabeth Hospital,Enumclaw,-121.9878448,47.20918315,1455 Battersby Avenue
Hospital,Kaiser Permanente - Central Hospital,Seattle,-122.312058,47.61998188,201 16th Avenue East
Hospital,St. Anne Hospital,Burien,-122.3432123,47.45743559,16251 Sylvester Rd SW
Hospital,Providence St. Peter Hospital ,Olympia,-122.8473864,47.05294191,413 Lilly Rd NE
Hospital,St. Clare Hospital,Lakewood,-122.50204,47.15431,11315 Bridgeport Way SW
Hospital,St. Francis Hospital ,Federal Way,-122.3273924,47.29269775,34515 9th Avenue South
Hospital,Legacy Salmon Creek Medical Center ,Vancouver,-122.6482416,45.72098352,2211 NE 139th Street
Hospital,MultiCare Allenmore Hospital,Tacoma,-122.4810546,47.24164648,1901 S. Union Ave
Hospital,St. Anthony Hospital,Gig Harbor,-122.6135502,47.36302274,11567 Canterwood Blvd NW
Hospital,Swedish Issaquah,Issaquah,-122.0218597,47.53575114,751 NE Blakely Drive
Hospital,MultiCare Tacoma General Hospital ,Tacoma,-122.4527136,47.25930659,315 Martin Luther King Jr. Way
Hospital,Peacehealth Peace Island Medical Center,Friday Harbor,-123.0278966,48.52941911,1117 Spring Street
Hospital,Summit Pacific Medical Center,Elma,-123.3929689,47.00694751,600 East Main Street
Hospital,Kindred Hospital Seattle - First Hill,Seattle,-122.3286038,47.61189364,1334 Terry Ave
Hospital,MultiCare Covington Medical Center,Covington,-122.1036731,47.35911468,17700 SE 272nd St
Hospital,Smokey Point Behavioral Hospital,Marysville,-122.1794847,48.13876015,3955 156th St NE
Hospital,Fairfax Behavioral Health - Everett,Everett,-122.2167506,47.975504,916 Pacific Ave
Hospital,Fairfax Behavioral Health - Monroe,Monroe,-121.987827,47.86335338,14701 179th Ave SE
Hospital,Rainier Springs,Vancouver,-122.64218,45.71422617,2805 NE 129th St
Hospital,Inland Northwest Behavioral Health,Spokane,-117.4143461,47.65145751,104 W 5th Ave
Hospital,Wellfound Behavioral Health Hospital,Tacoma,-122.480678,47.24180808,3402 S 19th St
Hospital,South Sound Behavioral Hospital,Lacey,-122.8276062,47.04255121,605 Woodland Square Loop SE
Hospital,Seattle Cancer Care Alliance,Seattle,-122.3297974,47.62658037,825 Eastlake Ave. E.
Hospital,Virginia Mason Franciscan Health Rehabilitation Hospital,Tacoma,-122.5199199,47.25297236,815 South Vassault Street
EMS (Emergency Medical Services),East Adams Rural Hospital,Ritzville,-118.37606,47.12793,315 East 1st
EMS (Emergency Medical Services),East Adams Rural Hospital,Washtucna,-118.31425,46.75197,175 S. Main
EMS (Emergency Medical Services),Othello Ambulance Service,Othello,-119.15525,46.83117,315 North 14 Ave
EMS (Emergency Medical Services),Asotin County FD #1,Clarkston,-117.08293,46.39561,2314 Appleside Blvd
EMS (Emergency Medical Services),Clarkston Fire Department,Clarkston,-117.04443,46.41407,820 5th St
EMS (Emergency Medical Services),Benton County FD #1,Benton City,-119.38136,46.21737,56205 E. Badger Rd
EMS (Emergency Medical Services),Benton County FD #1,Kennewick,-119.30312,46.20009,7704 S. Bermuda Rd
EMS (Emergency Medical Services),Benton County FD #1,Kennewick,-119.197,46.16778,144610 E. Law Lane
EMS (Emergency Medical Services),Benton County FD #1,Kennewick,-119.19468,46.22495,1321 N. Grant St
EMS (Emergency Medical Services),Benton County FD #1,Kennewick,-119.13816,46.18403,2700 S. Olympia St
EMS (Emergency Medical Services),Benton County FD #1,Kennewick,-119.03434,46.16498,30004 S. Finley Rd
EMS (Emergency Medical Services),Benton County FD #2,Benton City,-119.4957,46.26471,1304 Dale Ave
EMS (Emergency Medical Services),West Benton Fire and Rescue,Prosser,-119.77494,46.20877,1200 Grant Ave
EMS (Emergency Medical Services),Benton County FD #4,West Richland,-119.367474,46.313542,1400 Harrington Rd
EMS (Emergency Medical Services),Benton County FD #4,West Richland,-119.34568,46.27644,2604 Bombing Range Rd
EMS (Emergency Medical Services),Benton County FD #5,Prosser,-119.57506,46.18659,37301 W. County Well Rd
EMS (Emergency Medical Services),Benton County FD #6,Paterson,-119.60147,45.94003,48001 Prior Ave
EMS (Emergency Medical Services),Benton County FD #6,Plymouth,-119.355889,45.935796,190901 S. Nunn St
EMS (Emergency Medical Services),Kennewick Fire Department,Kennewick,-119.22015,46.22281,7400 W. Quinault Ave
EMS (Emergency Medical Services),Kennewick Fire Department,Kennewick,-119.16982,46.20539,414 N. Morain St
EMS (Emergency Medical Services),Kennewick Fire Department,Kennewick,-119.15665,46.18424,2620 W. 27th Ave
EMS (Emergency Medical Services),Kennewick Fire Department,Kennewick,-119.11869,46.20253,600 S. Auburn St
EMS (Emergency Medical Services),Richland Fire and Emergency Services,Richland,-119.30752,46.26093,2710 Duportail St
EMS (Emergency Medical Services),Richland Fire and Emergency Services,Richland,-119.28091,46.3006,1900 Jadwin Ave
EMS (Emergency Medical Services),Richland Fire and Emergency Services,Richland,-119.27301,46.28045,1000 George Washington Way
EMS (Emergency Medical Services),Richland Fire and Emergency Services,Richland,-119.26851,46.22731,710 Gage Blvd
EMS (Emergency Medical Services),Hanford Fire Department,Hanford,-119.512233,46.550645, 
EMS (Emergency Medical Services),Life Flight Network,Richland,-119.30017,46.30131,1909 Airport Way
EMS (Emergency Medical Services),PMH Medical Center EMS,Prosser,-119.7642,46.20819,723 Memorial St
EMS (Emergency Medical Services),American Medical Response,Kennewick,-119.18144,46.2124,4430 W Clearwater Ave
EMS (Emergency Medical Services),Chelan County FD #1,Wenatchee,-120.34658,47.42951,408 N. Western Ave
EMS (Emergency Medical Services),Chelan County FD #1,Wenatchee,-120.33782,47.44277,1420 Maple St
EMS (Emergency Medical Services),Chelan County FD #1,Wenatchee,-120.33489,47.47111,206 Easy St
EMS (Emergency Medical Services),Chelan County FD #1,Wenatchee,-120.31218,47.42155,136 S. Chelan Ave
EMS (Emergency Medical Services),Chelan County FD #1,Wenatchee,-120.302609,47.396023,1452 Squilchuck Rd
EMS (Emergency Medical Services),Chelan County FD #1,Wenatchee,-120.30248,47.39567,1836 S. Mission St
EMS (Emergency Medical Services),Chelan County FD #1,Malaga,-120.20409,47.3678,3760 West Malaga Rd
EMS (Emergency Medical Services),Chelan County FD #3,Leavenworth,-120.65278,47.60125,228 Chumstik Hwy
EMS (Emergency Medical Services),Chelan County FD #5,Manson,-120.16251,47.886,250 W. Manson Blvd
EMS (Emergency Medical Services),Chelan County FD #5,Manson,-120.14159,47.89985,2010 Wapato Lake Rd
EMS (Emergency Medical Services),Chelan County FD #8,Entiat,-120.21445,47.67471,2200 Entiat Way
EMS (Emergency Medical Services),Chelan County FD #9,Leavenworth,-120.66439,47.76856,19015 Beaver Valley Rd
EMS (Emergency Medical Services),Chelan County FD #9,Leavenworth,-120.66137,47.73446,21300 Cayuse St
EMS (Emergency Medical Services),Cashmere Fire Department,Cashmere,-120.46789,47.52118,101 Woodring St
EMS (Emergency Medical Services),Chelan County FD #6,Peshastin,-120.65533,47.4819,3545 Allen Ln
EMS (Emergency Medical Services),Chelan County FD #6,Peshastin,-120.60341,47.57068,8493 Main St
EMS (Emergency Medical Services),Chelan County FD #6,Dryden,-120.56076,47.54086,6817 Dryden Ave
EMS (Emergency Medical Services),Ballard Ambulance,Wenatchee,-120.3216,47.43679,1028 N. Wenatchee Ave
EMS (Emergency Medical Services),Cascade Medical Center Ambulance,Leavenworth,-120.66088,47.59436,817 Commercial St
EMS (Emergency Medical Services),Lake Chelan Community Hospital EMS,Manson,-120.16251,47.886,250 W. Manson Blvd
EMS (Emergency Medical Services),Lake Chelan Community Hospital EMS,Manson,-120.14159,47.89985,2010 Wapato Lake Rd
EMS (Emergency Medical Services),Lake Chelan Community Hospital EMS,Chelan,-120.01554,47.83881,232 E. Wapato Ave
EMS (Emergency Medical Services),Lake Chelan Community Hospital EMS,Chelan,-120.01313,47.84569,503 E. Highland Ave
EMS (Emergency Medical Services),Lifeline Ambulance,Wenatchee,-120.31623,47.43101,501 N. Wenatchee
EMS (Emergency Medical Services),Lifeline Ambulance,Wenatchee,-120.2854,47.40541,230 Grant Rd
EMS (Emergency Medical Services),Clallam County FD #2,Port Angeles,-123.53969,48.10076,700 Power Plant Rd
EMS (Emergency Medical Services),Clallam County FD #2,Port Angeles,-123.39286,48.10888,503 N. Baker St
EMS (Emergency Medical Services),Clallam County FD #3,Port Angeles,-123.26924,48.0927,256702 Highway 101
EMS (Emergency Medical Services),Clallam County FD #3,Sequim,-123.18157,48.01064,40 Texas Valley Rd
EMS (Emergency Medical Services),Clallam County FD #3,Sequim,-123.17479,48.08299,255 Carlborg Rd
EMS (Emergency Medical Services),Clallam County FD #3,Sequim,-123.12401,48.14298,4721 Sequim Dungeness Way
EMS (Emergency Medical Services),Clallam County FD #3,Sequim,-123.00481,48.01981,70 Sophus Rd
EMS (Emergency Medical Services),Clallam County FD #3,Sequim,-122.92873,48.0936,323 North 5th Ave
EMS (Emergency Medical Services),Clallam County FD #3,Sequim,-122.92859,48.09015,121 Sunshine Ave
EMS (Emergency Medical Services),Clallam County FD #4,Port Angeles,-123.72896,48.13199,51250 Highway 112
EMS (Emergency Medical Services),Clallam County FD #4,Port Angeles,-123.63564,48.11737,55922 Highway 112
EMS (Emergency Medical Services),Clallam County FD #5,Sekiu,-124.30694,48.26504,Sekiu Airport Rd
EMS (Emergency Medical Services),Clallam County FD #5,Clallam Bay,-124.26104,48.24848,60 Eagle Crest Way
EMS (Emergency Medical Services),Port Angeles Fire Department,Port Angeles,-123.436,48.11491,102 E. 5th St
EMS (Emergency Medical Services),Clallam County Hospital District #1,Forks,-124.39247,47.94601,530 Bogachiel Way
EMS (Emergency Medical Services),Olympic Ambulance,Port Angeles,-123.41551,48.11318,1011 E. Front St
EMS (Emergency Medical Services),Olympic Ambulance,Port Angeles,-123.3796,48.1037,63 Avis St
EMS (Emergency Medical Services),Olympic Ambulance,Sequim,-123.11616,48.08596,601 W. Hendrickson Rd
EMS (Emergency Medical Services),Neah Bay Ambulance Service,Neah Bay,-124.62679,48.36841,141 2nd Ave
EMS (Emergency Medical Services),Neah Bay Ambulance Service,Neah Bay,-124.61378,48.36507,1110 Woodland Ave
EMS (Emergency Medical Services),East County Fire and Rescure,Camas,-122.39927,45.62565,600 NE. 267th Ave
EMS (Emergency Medical Services),East County Fire and Rescure,Camas,-122.37225,45.65823,4909 NE. 292 Ave
EMS (Emergency Medical Services),East County Fire and Rescure,Washougal,-122.35206,45.62283,121 NE. 312th Ave
EMS (Emergency Medical Services),East County Fire and Rescure,Washougal,-122.32716,45.57708,211 39th St
EMS (Emergency Medical Services),East County Fire and Rescure,Washougal,-122.31202,45.60929,1808 SE. 352nd Ave
EMS (Emergency Medical Services),Clark County FD #3,Brush Prairie,-122.49039,45.73848,17718 NE. 159th St
EMS (Emergency Medical Services),Clark County FD #3,Battle Ground,-122.48644,45.81007,18201 NE. 259th St
EMS (Emergency Medical Services),Clark County FD #3,Battle Ground,-122.43932,45.77814,21503 NE. 227th Ave
EMS (Emergency Medical Services),Clark County FD #3,Brush Prairie,-122.41705,45.72706,24812 NE. Rawdon Rd
EMS (Emergency Medical Services),Clark County FD #6,Vancouver,-122.67056,45.68645,8800 NE. Hazel Dell Ave
EMS (Emergency Medical Services),Clark County FD #10,Woodland,-122.5716,45.93057,9813 NE. Cedar Creek Rd
EMS (Emergency Medical Services),Clark County FD #10,La Center,-122.55122,45.89365,37604 NE. 119th Ave
EMS (Emergency Medical Services),Clark County FD #10,Yacolt,-122.51033,45.88973,15718 NE. Fargher Lake Hwy
EMS (Emergency Medical Services),Clark County FD #10,Amboy,-122.45116,45.90964,21705 NE. 399th St
EMS (Emergency Medical Services),Clark County FD #10,Amboy,-122.42115,45.95486,24706 NE. Columviatie Rd
EMS (Emergency Medical Services),Clark County FD #10,Amboy,-122.37919,45.92671,42207 NE. Yale Bridge Rd
EMS (Emergency Medical Services),Clark County FD #13,Yacolt,-122.40965,45.86178,404 S. Parcel Ave
EMS (Emergency Medical Services),Clark County Fire and Rescue,Ridgefield,-122.68309,45.82193,911 N. 65th Ave
EMS (Emergency Medical Services),Camas Fire Department,Camas,-122.40179,45.58673,616 NE. 4th Ave
EMS (Emergency Medical Services),Vancouver Fire Department,Vancouver,-122.6013,45.66846,7110 NE. 63rd St
EMS (Emergency Medical Services),Washougal Fire Department,Washougal,-122.35726,45.57752,1400 A St
EMS (Emergency Medical Services),North Country EMS,Yacolt,-122.40965,45.86178,404 S. Parcel Ave
EMS (Emergency Medical Services),American Medical Response,Vancouver,-122.66718,45.67663,409 NE. 76th St
EMS (Emergency Medical Services),Columbia County FD #1,Starbuck,-118.12831,46.51929,14 McNeil St
EMS (Emergency Medical Services),Columbia County FD #3,Dayton,-117.97111,46.32463,111 Patit Rd
EMS (Emergency Medical Services),Cowlitz County FD #1,Woodland,-122.73576,45.89318,160 Pinkerton Dr
EMS (Emergency Medical Services),Cowlitz County FD #1,Woodland,-122.68485,45.97192,285 Woodland Heights Rd
EMS (Emergency Medical Services),Cowlitz County FD #1,Woodland,-122.66914,45.94014,3148 Lewis River Rd
EMS (Emergency Medical Services),Cowlitz 2 Fire and Rescue,Longview,-123.01664,46.17179,5699 Ocean Beach Way
EMS (Emergency Medical Services),Cowlitz 2 Fire and Rescue,Longview,-122.94352,46.16731,922 Nevad Dr
EMS (Emergency Medical Services),Cowlitz 2 Fire and Rescue,Kelso,-122.91785,46.14079,1796 Hwy 411
EMS (Emergency Medical Services),Cowlitz 2 Fire and Rescue,Kelso,-122.90712,46.14271,701 Vine St
EMS (Emergency Medical Services),Cowlitz 2 Fire and Rescue,Kelso,-122.82792,46.0979,1436 Rose Valley Rd
EMS (Emergency Medical Services),Cowlitz FD #3,Castle Rock,-122.84587,46.26869,1255 S. Silver Lake
EMS (Emergency Medical Services),Cowlitz FD #3,Toutle,-122.74102,46.32253,5055 Spirit Lake Hwy
EMS (Emergency Medical Services),Cowlitz County FD #5,Kalama,-122.84585,46.01042,382 NE. Frontage Rd
EMS (Emergency Medical Services),Cowlitz County FD #5,Kalama,-122.81451,45.97679,415 Todd Rd
EMS (Emergency Medical Services),Cowlitz County FD #5,Woodland,-122.73576,45.89318,160 Pinkerton Dr
EMS (Emergency Medical Services),Cowlitz County FD #6,Castle Rock,-122.90975,46.27476,146 A St
EMS (Emergency Medical Services),Cowlitz-Skamania FD #7,Ariel,-122.51123,45.99666,8020 Lewis River Rd
EMS (Emergency Medical Services),Cowlitz-Skamania FD #7,Ariel,-122.38631,45.99539,11670 Lewis River Rd
EMS (Emergency Medical Services),City of Longview,Longview,-122.93773,46.12679,740 Commerce Ave
EMS (Emergency Medical Services),American Medical Response,Kelso,-122.92128,46.14788,603 Royal St
EMS (Emergency Medical Services),Life Flight Network,Kelso,-122.89715,46.11916,2215 Parrot Way
EMS (Emergency Medical Services),Douglas County FD #2,East Wenatchee,-120.28102,47.41071,377 Eastmont Ave
EMS (Emergency Medical Services),Douglas County FD #2,East Wenatchee,-120.20467,47.40205,200 Airport Way
EMS (Emergency Medical Services),Douglas County FD #2,Rock Island,-120.14396,47.37572,301 Rock Island Dr
EMS (Emergency Medical Services),Douglas County FD #4,Orondo,-120.22796,47.62206,13984 Hwy 2
EMS (Emergency Medical Services),Bridgeport Volunteer Fire and EMS Dept,Bridgeport,-119.67409,48.0093,1206 Columbia Ave
EMS (Emergency Medical Services),Mansfield Ambulance,Mansfield,-119.63912,47.81259,138 Main St
EMS (Emergency Medical Services),Douglas County Hospital District #2,Waterville,-120.071,47.64674,117 S. Chelan St
EMS (Emergency Medical Services),North Ferry County Ambulance,Curlew,-118.74833,48.91168,739 Kettle River Rd
EMS (Emergency Medical Services),North Ferry County Ambulance,Curlew,-118.60894,48.88532,30 Customs Rd
EMS (Emergency Medical Services),Ferry County EMS District #1,Republic,-118.742,48.64436,499 W. 9th St
EMS (Emergency Medical Services),Franklin County FD #3,Pasco,-119.20166,46.24757,2108 Road 84
EMS (Emergency Medical Services),Franklin County FD #3,Pasco,-119.13586,46.29898,7809 N. Road 36
EMS (Emergency Medical Services),Franklin County FD #3,Pasco,-119.00787,46.35759,1200 Frontier Rd
EMS (Emergency Medical Services),Franklin County FD #3,Pasco,-118.83735,46.34904,15401 Pasco Kahlotus Rd
EMS (Emergency Medical Services),Pasco Fire Department,Pasco,-119.17968,46.25768,3203 Road 68
EMS (Emergency Medical Services),Pasco Fire Department,Pasco,-119.120094,46.25881,3502 Varney Ln
EMS (Emergency Medical Services),Pasco Fire Department,Pasco,-119.08104,46.23502,310 N. Oregon Ave
EMS (Emergency Medical Services),Franklin County Public Hospital Dist #1,Mesa,-119.13417,46.5829,22210 Glade N. Rd
EMS (Emergency Medical Services),Franklin County Public Hospital Dist #1,Eltopia,-119.11202,46.45235,12911 Glade N. Rd
EMS (Emergency Medical Services),Franklin County Public Hospital Dist #1,Mesa,-119.00533,46.57782,103 Roswell Ave
EMS (Emergency Medical Services),Franklin County Public Hospital Dist #1,Connell,-118.86322,46.65579,601 S. 1st St
EMS (Emergency Medical Services),American Medical Response,Kennewick,-119.18144,46.2124,4430 W Clearwater Ave
EMS (Emergency Medical Services),Garfield County FD #1,Pomeroy,-117.60317,46.47445,66 North 6th St
EMS (Emergency Medical Services),Grant County FD #3,Quincy,-120.02871,47.07535,807 Boyer Ave SW.
EMS (Emergency Medical Services),Grant County FD #3,Quincy,-119.99432,47.21542,8901 Crescent Bar Rd NW.
EMS (Emergency Medical Services),Grant County FD #3,Quincy,-119.85545,47.08068,101 Richmond Ave
EMS (Emergency Medical Services),Grant County FD #3,Quincy,-119.85402,47.22805,1201 Central Ave S.
EMS (Emergency Medical Services),Grant County FD #3,Quincy,-119.762366,46.986511,12580 Frenchman Hills Rd W.
EMS (Emergency Medical Services),Grant County FD #3,Quincy,-119.69166,47.25081,9392 SR 28 W.
EMS (Emergency Medical Services),Grant County FD #3,Quincy,-119.639579,47.191758,6984 Rd 7 NW.
EMS (Emergency Medical Services),Grant County FD #4,Warden,-119.12541,46.98413,17301 Hwy 262 E.
EMS (Emergency Medical Services),Grant County FD #4,Warden,-119.04231,46.96991,114 N. Oak St
EMS (Emergency Medical Services),Grant County FD #5,Moses Lake,-119.36277,47.11703,6028 Mae Valley Rd NE.
EMS (Emergency Medical Services),Grant County FD #5,Moses Lake,-119.31967,47.17405,1021 Arlington Dr
EMS (Emergency Medical Services),Grant County FD #5,Moses Lake,-119.27805,47.08791,23 Potato Hill Rd
EMS (Emergency Medical Services),Grant County FD #5,Moses Lake,-119.27583,47.26095,11821 Stratford Rd NE
EMS (Emergency Medical Services),Grant County FD #5,Moses Lake,-119.25604,47.11701,11058 Nelson Rd NE.
EMS (Emergency Medical Services),Grant County FD #6,Hartline,-119.10739,47.69041,925 Willard St
EMS (Emergency Medical Services),Grant County FD #7,Soap Lake,-119.49321,47.37344,155 Hwy 28 W.
EMS (Emergency Medical Services),Grant County FD #7,Coulee City,-119.4462,47.57043,31199 Hwy 17
EMS (Emergency Medical Services),Grant County FD #8,Mattawa,-119.90817,46.68025,7 Desert Aire Dr SW.
EMS (Emergency Medical Services),Grant County FD #8,Mattawa,-119.90057,46.73765,510 E. Government Rd
EMS (Emergency Medical Services),Grant County FD #8,Mattawa,-119.70578,46.73581,24062 Road J SW.
EMS (Emergency Medical Services),Grant County FD #10,Royal City,-119.62197,46.90104,336 Camelia St NW.
EMS (Emergency Medical Services),Grant County FD #10,Othello,-119.48521,46.9172,11710 1st Ave SE.
EMS (Emergency Medical Services),Grant County FD #10,Othello,-119.47233,46.94813,6612 SR 262 E.
EMS (Emergency Medical Services),Grant County FD #10,Othello,-119.389799,46.912412,Road 12 and Road E SE.
EMS (Emergency Medical Services),Grant County FD #12,Wilson Creek,-119.121285,47.422192,Corner of Railroad and 4th St
EMS (Emergency Medical Services),Grant County FD #13,Ephrata,-119.55589,47.30781,1227 Berschauer Industrial
EMS (Emergency Medical Services),Coulee City Fire Department,Coulee City,-119.29188,47.611,317 W. Main
EMS (Emergency Medical Services),Grand Coulee Ambulance,Grand Coulee,-119.00403,47.93974,205 Spokane Way
EMS (Emergency Medical Services),Moses Lake Fire Department,Moses Lake,-119.28527,47.12624,701 E. Third Ave
EMS (Emergency Medical Services),American Medical Response,Moses Lake,-119.27757,47.12928,116 W. 4th Ave
EMS (Emergency Medical Services),Ephrata Fire Department,Ephrata,-119.55162,47.31844,121 Alder St SW.
EMS (Emergency Medical Services),Rural Metro Fire Department,Moses Lake,-119.32245,47.1882,6997 Patton Blvd NE
EMS (Emergency Medical Services),Protection 1,Quincy,-119.86798,47.23095,908 10TH Ave SW
EMS (Emergency Medical Services),Grays Harbor FD #1,Oakville,-123.23384,46.83983,110 E. Main St
EMS (Emergency Medical Services),Grays Harbor FD #2,Aberdeen,-123.70315,46.97274,6317 Olympic Hwy
EMS (Emergency Medical Services),Grays Harbor FD #2,Montesano,-123.69318,47.07616,1393 Wynoochee Valley Rd
EMS (Emergency Medical Services),Grays Harbor FD #2,Montesano,-123.51429,46.99441,8 Fire Station Rd
EMS (Emergency Medical Services),Lake Quinault Volunteer Fire Department,Amanda Park,-123.89606,47.4593,6116 US Highway 101
EMS (Emergency Medical Services),Grays Harbor FD #5,Elma,-123.46203,47.00605,1003 Monte Elma Rd
EMS (Emergency Medical Services),Grays Harbor FD #5,Elma,-123.36498,47.03351,428 Stamper Rd
EMS (Emergency Medical Services),Grays Harbor FD #5,McCleary,-123.26535,47.05575,100 Simpson Ave
EMS (Emergency Medical Services),Grays Harbor FD #6,Hoquiam,-123.90765,47.00684,169 US Highway 101
EMS (Emergency Medical Services),Grays Harbor FD #7,Copailis Beach,-124.165484,47.114784,701 Copalis Beach Rd
EMS (Emergency Medical Services),Grays Harbor FD #7,Hoquiam,-124.07219,47.04256,258 Burrows Rd
EMS (Emergency Medical Services),Grays Harbor FD #7,Ocean City,-124.16583,47.07337,2656 State Route 109
EMS (Emergency Medical Services),Grays Harbor FD #8,Pacific Beach,-124.203662,47.218626,4576 SR 109
EMS (Emergency Medical Services),Grays Harbor FD #10,Aberdeen,-123.79177,47.04979,3707 Wishkah Rd
EMS (Emergency Medical Services),Grays Harbor FD #10,Aberdeen,-123.76914,47.11807,4660 Wishkah Rd
EMS (Emergency Medical Services),Grays Harbor FD #14,Aberdeen,-123.99366,46.89556,69 Johns River Rd
EMS (Emergency Medical Services),Grays Harbor/Pacific County FD #15,Cosmopolis,-123.71373,46.88897,15 Artic Rd
EMS (Emergency Medical Services),Grays Harbor/Pacific County FD #15,Cosmopolis,-123.5808,46.81774,1661 N. River Rd
EMS (Emergency Medical Services),Grays Harbor/Pacific County FD #15,Cosmopolis,-123.533,46.79404,2790 N. River Rd
EMS (Emergency Medical Services),Copalis Crossing Fire Department,Copailis Crossing,-124.07126,47.10866,1617 Ocean Beach Rd
EMS (Emergency Medical Services),Grays Harbor FD #17,Hoquiam,-123.95079,47.1948,20 Walker Rd
EMS (Emergency Medical Services),Aberdeen Fire Department,Aberdeen,-123.82681,46.97133,700 W. Market St
EMS (Emergency Medical Services),Aberdeen Fire Department,Aberdeen,-123.8011,46.97167,700 W. Curtis St
EMS (Emergency Medical Services),Cosmopolis Fire Department,Cosmopolis,-123.77062,46.95452,111 D St
EMS (Emergency Medical Services),City of Elma Fire Department,Elma,-123.40316,47.00497,112 N. 2nd St
EMS (Emergency Medical Services),Hoquiam Fire Department,Hoquiam,-123.88731,46.97497,628 8th St
EMS (Emergency Medical Services),Hoquiam Fire Department,Hoquiam,-123.8651,46.97368,517 Ontario St
EMS (Emergency Medical Services),Montesano Fire Department,Montesano,-123.59811,46.97966,310 E. Pioneer Ave
EMS (Emergency Medical Services),Ocean Shores Fire Department,Ocean Shores,-124.16097,47.00199,585 Pt Brown Ave NW.
EMS (Emergency Medical Services),Westport Fire Department,Westport,-124.10501,46.88953,170 W. Spokane Ave
EMS (Emergency Medical Services),Quinault Indian Nation,Taholah,-124.29414,47.34678,137 Cuitan St
EMS (Emergency Medical Services),South Beach Fire and EMS,Westport,-124.10501,46.88953,170 W. Spokane Ave
EMS (Emergency Medical Services),City of McCleary,McCleary,-123.2646,47.0553,100 S. 3rd St
EMS (Emergency Medical Services),Camano Island Fire and Rescue,Camano Island,-122.52702,48.17474,985 Orchid Ln
EMS (Emergency Medical Services),Camano Island Fire and Rescue,Camano Island,-122.52263,48.22086,273 NW. Camano
EMS (Emergency Medical Services),Camano Island Fire and Rescue,Camano Island,-122.47808,48.16277,1326 Elger Bay Rd
EMS (Emergency Medical Services),Camano Island Fire and Rescue,Camano Island,-122.45534,48.24325,525 E. North Camano
EMS (Emergency Medical Services),Camano Island Fire and Rescue,Camano Island,-122.40967,48.0936,3651 South Camano
EMS (Emergency Medical Services),North Widbey Fire and Rescue,Oak Harbor,-122.64271,48.30451,770 NE Midway Blvd Ste 201
EMS (Emergency Medical Services),South Whidbey Fire/EMS,Freeland,-122.54115,48.00935,5535 Cameron Rd
EMS (Emergency Medical Services),South Whidbey Fire/EMS,Langley,-122.40166,48.03189,844 Camano Ave
EMS (Emergency Medical Services),South Whidbey Fire/EMS,Clinton,-122.35633,47.97737,6435 Central Ave
EMS (Emergency Medical Services),Island County FD #5,Coupeville,-122.68592,48.21436,109 N. Main St
EMS (Emergency Medical Services),Island County FD #5,Coupeville,-122.60365,48.17315,1164 Race Rd
EMS (Emergency Medical Services),Island County FD #5,Greenbank,-122.58082,48.09244,3253 Day Rd
EMS (Emergency Medical Services),Oak Harbor Fire Department,Oak Harbor,-122.64761,48.29811,855 E. Whidbey
EMS (Emergency Medical Services),Whidbey General Hospital EMS,Coupeville,-122.6842,48.21396,101 N. Main St
EMS (Emergency Medical Services),Whidbey General Hospital EMS,Oak Harbor,-122.67369,48.30836,2720 N. Heller Rd
EMS (Emergency Medical Services),Whidbey General Hospital EMS,Oak Harbor,-122.64847,48.30389,760 7th Ave NE.
EMS (Emergency Medical Services),Whidbey General Hospital EMS,Coupeville,-122.60365,48.17315,1164 Race Rd
EMS (Emergency Medical Services),Whidbey General Hospital EMS,Langley,-122.4611,48.00265,5737 Bayview Rd
EMS (Emergency Medical Services),Jefferson County FD #1,Port Townsend,-122.828759,48.102619,35 Critter Ln
EMS (Emergency Medical Services),Jefferson County FD #1,Port Townsend,-122.806241,48.05708,50 Airport Rd
EMS (Emergency Medical Services),Jefferson County FD #1,Chimacum,-122.77062,48.01135,9193 Rhody Dr
EMS (Emergency Medical Services),Jefferson County FD #1,Port Townsend,-122.76426,48.11618,701 Harrison St
EMS (Emergency Medical Services),Jefferson County FD #1,Nordland,-122.69149,48.04355,6693 Flagler Rd
EMS (Emergency Medical Services),Jefferson County FD #1,Port Townsend,-122.86828,48.0906,3850 Cape George Rd
EMS (Emergency Medical Services),Quilcene Fire Rescue,Quilcene,-122.87747,47.82353,70 Herbert St
EMS (Emergency Medical Services),Port Ludlow Fire and Rescue,Port Ludlow,-122.69451,47.87247,101 South Point Rd
EMS (Emergency Medical Services),Port Ludlow Fire and Rescue,Port Ludlow,-122.68641,47.93914,7650 Oak Bay Rd
EMS (Emergency Medical Services),Port Ludlow Fire and Rescue,Port Ludlow,-122.64956,47.8995,121 West Alder St
EMS (Emergency Medical Services),Brinnon Fire Department,Brinnon,-122.90354,47.69404,272 Schoolhouse Rd
EMS (Emergency Medical Services),Discovery Bay Volunteer Fire and Rescue,Port Townsend,-122.88411,47.98239,12 Bentley Pl
EMS (Emergency Medical Services),King County FD #2,Burien,-122.34398,47.46746,15100 8th Ave SW.
EMS (Emergency Medical Services),King County FD #2,Burien,-122.33277,47.44183,135 S. Normandy Rd
EMS (Emergency Medical Services),King County FD #2,Burien,-122.31247,47.48881,1606 S. 128th St
EMS (Emergency Medical Services),Shoreline Fire Department,Shoreline,-122.35023,47.76283,719 N. 185th St
EMS (Emergency Medical Services),Shoreline Fire Department,Shoreline,-122.346092,47.756272,17525 Aurora Ave N.
EMS (Emergency Medical Services),Shoreline Fire Department,Shoreline,-122.32784,47.7409,145 NE. 155th St
EMS (Emergency Medical Services),Shoreline Fire Department,Shoreline,-122.31437,47.75961,1410 NE. 180th St
EMS (Emergency Medical Services),Shoreline Fire Department,Lake Forest Park,-122.28159,47.75267,17020 Brookside Blvd NE.
EMS (Emergency Medical Services),Shoreline Fire Department,Bothell,-122.19721,47.7623,10726 Beardslee Blvd
EMS (Emergency Medical Services),Eastside Fire and Rescue,Renton,-122.06707,47.46542,20505 SE 152nd St
EMS (Emergency Medical Services),Eastside Fire and Rescue,Issaquah,-122.06327,47.48232,20700 SE May Valley Rd
EMS (Emergency Medical Services),Eastside Fire and Rescue,Issaquah,-122.06139,47.5427,1575 NW Maple St
EMS (Emergency Medical Services),Eastside Fire and Rescue,Sammamish,-122.0565,47.59111,2030 212th Ave SE
EMS (Emergency Medical Services),Eastside Fire and Rescue,Issaquah,-122.04382,47.53222,175 Newport Way NW
EMS (Emergency Medical Services),Eastside Fire and Rescue,Sammamish,-122.03593,47.62613,1851 228th Ave NE
EMS (Emergency Medical Services),Eastside Fire and Rescue,Issaquah,-122.03316,47.53032,190 East Sunset Way
EMS (Emergency Medical Services),Eastside Fire and Rescue,Sammamish,-122.02774,47.57836,3425 Issaquah Pine Lake Rd
EMS (Emergency Medical Services),Eastside Fire and Rescue,Issaquah,-122.01346,47.54496,1280 NE Park Dr
EMS (Emergency Medical Services),Eastside Fire and Rescue,Issaquah,-121.9842,47.46587,15132 Tiger Mountain Rd SE
EMS (Emergency Medical Services),Eastside Fire and Rescue,Issaquah,-121.92863,47.52319,8641 Preston-Fall City Rd
EMS (Emergency Medical Services),Eastside Fire and Rescue,Carnation,-121.91507,47.64121,3600 Tolt Ave
EMS (Emergency Medical Services),Eastside Fire and Rescue,Carnation,-121.8702,47.69205,10644 E Lake Joy Dr NE
EMS (Emergency Medical Services),Eastside Fire and Rescue,North Bend,-121.77402,47.48816,500 Maloney Grove Ave SE
EMS (Emergency Medical Services),Eastside Fire and Rescue,North Bend,-121.76388,47.44496,43204 SE 172nd St
EMS (Emergency Medical Services),North Highline Fire District,Seattle,-122.35171,47.50262,1243 SW 112th St
EMS (Emergency Medical Services),North Highline Fire District,Burien,-122.31247,47.48881,1606 S. 128th St
EMS (Emergency Medical Services),Vashon Island Fire and Rescue,Vashon,-122.46693,47.38931,10330 SW Burton Dr
EMS (Emergency Medical Services),Vashon Island Fire and Rescue,Vashon,-122.46284,47.44787,10020 SW Bank Rd
EMS (Emergency Medical Services),Northshore Fire Department,Kenmore,-122.24423,47.7595,7220 NE 181st St
EMS (Emergency Medical Services),King County FD #20,Seattle,-122.23861,47.49132,12417 76th Ave S
EMS (Emergency Medical Services),King County FD #20,Seattle,-122.22789,47.49837,11619 84th Ave S
EMS (Emergency Medical Services),King County FD #27,Fall City,-121.89502,47.56812,4301 334th Pl SE
EMS (Emergency Medical Services),Woodinville Fire and Rescue,Shoreline,-122.31437,47.75961,1410 NE 180th St
EMS (Emergency Medical Services),Woodinville Fire and Rescue,Woodinville,-122.16196,47.76836,19401 NE 133rd St
EMS (Emergency Medical Services),Woodinville Fire and Rescue,Woodinville,-122.15895,47.75672,17718 Woodiniville Snohomish Rd NE
EMS (Emergency Medical Services),Woodinville Fire and Rescue,Woodinville,-122.0803,47.75791,17825 Avondale Rd NE
EMS (Emergency Medical Services),King County FD #39,Federal Way,-122.36029,47.30205,33414 21st Ave SW
EMS (Emergency Medical Services),King County FD #39,Federal Way,-122.3355,47.31842,31617 1st Ave S
EMS (Emergency Medical Services),King County FD #39,Des Moines,-122.32919,47.40138,22307 Dock Ave S
EMS (Emergency Medical Services),King County FD #39,Des Moines,-122.31415,47.35927,27010 15th Ave S
EMS (Emergency Medical Services),King County FD #39,Des Moines,-122.30314,47.40238,2238 S 223rd St
EMS (Emergency Medical Services),King County FD #39,Auburn,-122.287,47.31553,3700 S 320th St
EMS (Emergency Medical Services),King County FD #39,Auburn,-122.27123,47.33518,4966 S 298th St
EMS (Emergency Medical Services),Maple Valley Fire and Life Safety,Renton,-122.08257,47.45024,16855 194th Ave SE
EMS (Emergency Medical Services),Maple Valley Fire and Life Safety,Maple Valley,-122.05323,47.35636,27250 216th Ave SE
EMS (Emergency Medical Services),Maple Valley Fire and Life Safety,Maple Valley,-122.04432,47.39412,22225 SE 231st St
EMS (Emergency Medical Services),Maple Valley Fire and Life Safety,Maple Valley,-122.02215,47.36448,23775 SE 264th St
EMS (Emergency Medical Services),Maple Valley Fire and Life Safety,Ravensdale,-121.97521,47.3575,27519 Kent Kangley Rd
EMS (Emergency Medical Services),Maple Valley Fire and Life Safety,Maple Valley,-121.97292,47.41568,27605 SE 208th St
EMS (Emergency Medical Services),Mountain View Fire and Rescue,Auburn,-122.14382,47.31176,32316 148th Ave SE
EMS (Emergency Medical Services),Mountain View Fire and Rescue,Auburn,-122.10161,47.31694,31709 Kent Black Diamond Rd
EMS (Emergency Medical Services),Mountain View Fire and Rescue,Kent,-122.09375,47.34196,18610 Covington Sawyer Rd
EMS (Emergency Medical Services),Mountain View Fire and Rescue,Auburn,-122.05935,47.28886,34920 212th Ave SE
EMS (Emergency Medical Services),Mountain View Fire and Rescue,Black Diamond,-122.04857,47.33644,22015 SE 296th St
EMS (Emergency Medical Services),Mountain View Fire and Rescue,Enumclaw,-122.01555,47.24851,39404 244th Ave SE
EMS (Emergency Medical Services),Mountain View Fire and Rescue,Black Diamond,-122.00458,47.3091,25313 Baker St
EMS (Emergency Medical Services),King County FD #45,Duvall,-121.98454,47.74123,15600 1st Ave NE
EMS (Emergency Medical Services),King County FD #45,Duvall,-121.94811,47.71638,29229 NE Big Rock Rd
EMS (Emergency Medical Services),King County FD #45,Duvall,-121.91297,47.75549,18005 Mountain View Rd NE
EMS (Emergency Medical Services),Skykomish Fire Department,Baring,-121.4788,47.7661,64110 Index Creek Rd
EMS (Emergency Medical Services),Skykomish Fire Department,Skykomish,-121.36125,47.70788,107 W Cascade Hwy
EMS (Emergency Medical Services),Skykomish Fire Department,Skykomish,-121.36107,47.70785,105 W Old Cascade Hwy
EMS (Emergency Medical Services),Snoqualmie Pass Fire and Rescue,Snoqualmie Pass,-121.41267,47.41817,1211 State Route 906
EMS (Emergency Medical Services),King County International Airport,Tukwila,-122.3044,47.52931,8190 E Marginal Way S
EMS (Emergency Medical Services),Bellevue Fire Department,Clyde Hill,-122.21158,47.6317,9621 NE 24th St
EMS (Emergency Medical Services),Bellevue Fire Department,Bellevue,-122.20078,47.60304,766 Bellevue Way SE
EMS (Emergency Medical Services),Bellevue Fire Department,Bellevue,-122.18583,47.6205,1035 116th Ave NE
EMS (Emergency Medical Services),Bellevue Fire Department,Bellevue,-122.18555,47.63186,1838 116th Ave NE
EMS (Emergency Medical Services),Bellevue Fire Department,Bellevue,-122.18053,47.60318,11900 SE 8th St
EMS (Emergency Medical Services),Bellevue Fire Department,Bellevue,-122.1755,47.54111,12412 Newcastle Way
EMS (Emergency Medical Services),Bellevue Fire Department,Bellevue,-122.16876,47.57023,4216 Factoria Blvd SE
EMS (Emergency Medical Services),Bellevue Fire Department,Bellevue,-122.16371,47.62613,1850 132nd Ave NE
EMS (Emergency Medical Services),Bellevue Fire Department,Bellevue,-122.14217,47.58507,2802 148th Ave SE
EMS (Emergency Medical Services),Bellevue Fire Department,Bellevue,-122.12639,47.552,5701 Lakemont Blvd SE
EMS (Emergency Medical Services),Bellevue Fire Department,Bellevue,-122.12541,47.6174,16100 NE 8th St
EMS (Emergency Medical Services),Bellevue Fire Department,Issaquah,-122.01346,47.54496,1280 NE Park Dr
EMS (Emergency Medical Services),Bellevue Fire Department,Bend,-121.77402,47.48816,500 Maloney Grove Ave SE
EMS (Emergency Medical Services),Bothell Fire and EMS,Bothell,-122.23664,47.78923,330 228th St SW
EMS (Emergency Medical Services),Bothell Fire and EMS,Bothell,-122.21158,47.80037,1608 217th Pl SE
EMS (Emergency Medical Services),Bothell Fire and EMS,Bothell,-122.19721,47.7623,10726 Beardslee Blvd
EMS (Emergency Medical Services),Enumclaw Fire Department,Enumclaw,-122.0592,47.21166,43407 212th Ave SE
EMS (Emergency Medical Services),Enumclaw Fire Department,Enumclaw,-121.99257,47.20241,1330 Wells St
EMS (Emergency Medical Services),Enumclaw Fire Department,Enumclaw,-121.92755,47.283,35421 Veaz-Cumberland Rd SE
EMS (Emergency Medical Services),Kent Fire Department (Regional Fire Authority),Seatac,-122.29505,47.42239,2929 S 200th St
EMS (Emergency Medical Services),Kent Fire Department (Regional Fire Authority),Kent,-122.29124,47.36363,26512 Military Rd S
EMS (Emergency Medical Services),Kent Fire Department (Regional Fire Authority),Seatac,-122.29108,47.4667,3215 S 152nd St
EMS (Emergency Medical Services),Kent Fire Department (Regional Fire Authority),Seatac,-122.28666,47.45096,3521 S 170th St
EMS (Emergency Medical Services),Kent Fire Department (Regional Fire Authority),Kent,-122.24352,47.4174,20676 72nd Ave S
EMS (Emergency Medical Services),Kent Fire Department (Regional Fire Authority),Kent,-122.23775,47.37624,504 W Crow St
EMS (Emergency Medical Services),Kent Fire Department (Regional Fire Authority),Kent,-122.18743,47.38132,24611 116th Ave SE
EMS (Emergency Medical Services),Kent Fire Department (Regional Fire Authority),Kent,-122.16544,47.41564,20717 132nd Ave SE
EMS (Emergency Medical Services),Kent Fire Department (Regional Fire Authority),Kent,-122.15432,47.37178,25620 140th AveSE
EMS (Emergency Medical Services),Kent Fire Department (Regional Fire Authority),Kent,-122.13236,47.35746,15635 SE 272nd St
EMS (Emergency Medical Services),Kent Fire Department (Regional Fire Authority),Covington,-122.10319,47.37328,17820 SE 256th St
EMS (Emergency Medical Services),Kirkland Fire Department,Kirkland,-122.23861,47.70882,12033 76th Pl NE
EMS (Emergency Medical Services),Kirkland Fire Department,Kirkland,-122.22876,47.72731,8411 NE 141st St
EMS (Emergency Medical Services),Kirkland Fire Department,Kirkland,-122.20927,47.69545,9816 Forbes Creek Dr
EMS (Emergency Medical Services),Kirkland Fire Department,Kirkland,-122.19563,47.66534,6602 108th Ave NE
EMS (Emergency Medical Services),Kirkland Fire Department,Kirkland,-122.19145,47.71889,11210 NE 132nd St
EMS (Emergency Medical Services),Kirkland Fire Department,Kirkland,-122.17509,47.68918,9930 124th Ave NE
EMS (Emergency Medical Services),Mercer Island Fire Department,Mercer Island,-122.23292,47.58274,3030 78th Ave SE
EMS (Emergency Medical Services),Mercer Island Fire Department,Mercer Island,-122.22393,47.54177,8473 SE 68th St
EMS (Emergency Medical Services),Redmond Fire Department,Redmond,-122.1432,47.64652,4211 148th Ave NE
EMS (Emergency Medical Services),Redmond Fire Department,Redmond,-122.12492,47.67808,8450 161st Ave NE
EMS (Emergency Medical Services),Redmond Fire Department,Redmond,-122.11404,47.70351,16917 NE 116th St
EMS (Emergency Medical Services),Redmond Fire Department,Redmond,-122.0932,47.66447,6502 185th Ave NE
EMS (Emergency Medical Services),Redmond Fire Department,Woodinville,-122.079959,47.75827,17825 Avondale Pl NE
EMS (Emergency Medical Services),Redmond Fire Department,Redmond,-122.0635,47.6801,8701 208th Ave NE
EMS (Emergency Medical Services),Redmond Fire Department,Redmond,-122.03692,47.69212,22710 NE Alder Crest Dr
EMS (Emergency Medical Services),Redmond Fire Department,Redmond,-121.98738,47.65203,5021 264th Ave NE
EMS (Emergency Medical Services),Redmond Fire Department,Kirkland,-122.1787,47.7158,12040 NE 128 St
EMS (Emergency Medical Services),Renton Fire and EMS,Renton,-122.22317,47.46267,1900 Lind Ave SW
EMS (Emergency Medical Services),Renton Fire and EMS,Renton,-122.20335,47.48078,211 Mill Ave S
EMS (Emergency Medical Services),Renton Fire and EMS,Renton,-122.17916,47.5035,1209 Kirkland Ave NE
EMS (Emergency Medical Services),Renton Fire and EMS,Renton,-122.1329,47.48666,12923 156th Ave SE
EMS (Emergency Medical Services),Seattle Fire Department,Seattle,-122.37734,47.66836,1521 NW Market St
EMS (Emergency Medical Services),Seattle Fire Department,Seattle,-122.37629,47.53349,7700 35th Ave SW
EMS (Emergency Medical Services),Seattle Fire Department,Seattle,-122.34442,47.61601,2320 4th Ave
EMS (Emergency Medical Services),Seattle Fire Department,Seattle,-122.34113,47.70483,1319 N Northgate Way
EMS (Emergency Medical Services),Seattle Fire Department,Seattle,-122.33195,47.59986,301 2nd Ave S
EMS (Emergency Medical Services),Seattle Fire Department,Seattle,-122.32854,47.60116,400 S Washington St
EMS (Emergency Medical Services),Seattle Fire Department,Seattle,-122.32853,47.57459,3224 4th Ave S
EMS (Emergency Medical Services),Seattle Fire Department,Seattle,-122.31665,47.66514,1050 NE 50th St
EMS (Emergency Medical Services),Seattle Fire Department,Seattle,-122.31516,47.61551,1300 East Pine St
EMS (Emergency Medical Services),Seattle Fire Department,Seattle,-122.29738,47.72131,2806 NE 127th St
EMS (Emergency Medical Services),Seattle Fire Department,Seattle,-122.29448,47.57574,2931 Mt. Baker Blvd S
EMS (Emergency Medical Services),Seattle Fire Department,Seattle,-122.27653,47.54847,5968 Rainier Ave S
EMS (Emergency Medical Services),Snoqualmie Fire Department,Snoqualmie,-121.83943,47.53522,37600 SE Snoqualmie Pkwy
EMS (Emergency Medical Services),Tukwila Fire Department,Tukwila,-122.2809,47.50061,4204 S 115th St
EMS (Emergency Medical Services),Tukwila Fire Department,Tukwila,-122.27927,47.47364,4237 S 144th St
EMS (Emergency Medical Services),Tukwila Fire Department,Tukwila,-122.25952,47.47162,5900 S 147th St
EMS (Emergency Medical Services),Tukwila Fire Department,Tukwila,-122.25005,47.45177,444 Andover Pk E
EMS (Emergency Medical Services),King County Medic One,Kent,-122.22876,47.41425,20811 84TH Ave S
EMS (Emergency Medical Services),American Medical Response,Tukwila,-122.27448,47.48665,13075 Gateway Dr S
EMS (Emergency Medical Services),Boeing Fire Department,Seattle,-122.31213,47.5328,7755 E Marginal Way S
EMS (Emergency Medical Services),Tri Med Ambulance,Kent,-122.22795,47.43334,18821 E Valley Hwy
EMS (Emergency Medical Services),Valley Regional Fire Authority,Auburn,-122.22549,47.31774,1101 D St NE
EMS (Emergency Medical Services),Falck Northwest,Kirkland,-122.16961,47.71311,12522 128th Ln NE
EMS (Emergency Medical Services),Central Kitsap Fire and Rescue,Seabeck,-122.83204,47.63741,15543 Seabeck Hwy NW
EMS (Emergency Medical Services),Central Kitsap Fire and Rescue,Bremerton,-122.76204,47.62176,6470 Seabeck Hwy NW
EMS (Emergency Medical Services),Central Kitsap Fire and Rescue,Bremerton,-122.70995,47.60022,4065 Chico Way
EMS (Emergency Medical Services),Central Kitsap Fire and Rescue,Silverdale,-122.68499,47.66286,10955 Silverdale Way
EMS (Emergency Medical Services),Central Kitsap Fire and Rescue,Poulsbo,-122.65748,47.68999,14061 Central Valley Rd NE
EMS (Emergency Medical Services),Central Kitsap Fire and Rescue,Bremerton,-122.63687,47.63282,7600 Old Military Rd NE
EMS (Emergency Medical Services),Central Kitsap Fire and Rescue,Bremerton,-122.6093,47.59716,3725 Trenton Ave NE
EMS (Emergency Medical Services),Bainbridge Island Fire Department,Bainbridge Island,-122.54278,47.62234,7934 NE Bucklin Hill Rd
EMS (Emergency Medical Services),Bainbridge Island Fire Department,Bainbridge Island,-122.54001,47.68126,12985 Phelps Rd NE
EMS (Emergency Medical Services),Bainbridge Island Fire Department,Bainbridge Island,-122.52144,47.64399,8895 Madison Ave NE
EMS (Emergency Medical Services),South Kitsap Fire and Rescue,Bremerton,-122.76782,47.49339,4045 State Hwy 3
EMS (Emergency Medical Services),South Kitsap Fire and Rescue,Port Orchard,-122.64587,47.52494,200 Tremont St
EMS (Emergency Medical Services),South Kitsap Fire and Rescue,Port Orchard,-122.63199,47.49169,6258 Bethel Rd SE
EMS (Emergency Medical Services),South Kitsap Fire and Rescue,Port Orchard,-122.63031,47.43435,12685 Bethel/Burley Rd SE
EMS (Emergency Medical Services),South Kitsap Fire and Rescue,Port Orchard,-122.59959,47.53119,1974 Fircrest Dr SE
EMS (Emergency Medical Services),South Kitsap Fire and Rescue,Port Orchard,-122.55377,47.53432,7433 SE Mile Hill Dr
EMS (Emergency Medical Services),North Kitsap Fire and Rescue,Kingston,-122.54013,47.80449,26642 Miller Bay Rd NE
EMS (Emergency Medical Services),Bremerton Fire Department,Bremerton,-122.68256,47.56915,5005 Kitsap Way
EMS (Emergency Medical Services),Bremerton Fire Department,Bremerton,-122.63048,47.56962,911 Park Ave
EMS (Emergency Medical Services),Bremerton Fire Department,Bremerton,-122.61915,47.59143,3031 Olympus Dr
EMS (Emergency Medical Services),Poulsbo Fire Department,Poulsbo,-122.63796,47.74047,911 NE Liberty Rd
EMS (Emergency Medical Services),Navy Region Northwest Fire and EMS,Silverdale,-122.72756,47.7229,7600 Sturgeon St
EMS (Emergency Medical Services),Navy Region Northwest Fire and EMS,Silverdale,-122.70837,47.699,1300 Silversides Rd
EMS (Emergency Medical Services),Navy Region Northwest Fire and EMS,Bremerton,-122.69268,47.58608,83 Olding Rd
EMS (Emergency Medical Services),Navy Region Northwest Fire and EMS,Bremerton,-122.64654,47.56676,503 Naval Ave
EMS (Emergency Medical Services),Navy Region Northwest Fire and EMS,Bremerton,-122.64628,47.56165,503 Dewey St
EMS (Emergency Medical Services),Navy Region Northwest Fire and EMS,Bremerton,-122.6393,47.56027,435 Farragut Ave
EMS (Emergency Medical Services),Bainbridge Island Ambulance,Bainbridge Island,-122.5164,47.62935,600 Ericksen Ave NE
EMS (Emergency Medical Services),Olympic Ambulance,Bremerton,-122.62502,47.58086,2502 Cherry Pl
EMS (Emergency Medical Services),Bremerton Ambulance,Bremerton,-122.62502,47.58086,2502 Cherry Pl
EMS (Emergency Medical Services),Kittitas County FD #1,Thorp,-120.67399,47.06927,10700 N Thorp Hwy
EMS (Emergency Medical Services),Kittitas Valley Fire and Rescue,Ellensburg,-120.64521,46.98118,5640 Cove Rd
EMS (Emergency Medical Services),Kittitas Valley Fire and Rescue,Ellensburg,-120.54671,46.99206,102 N. Pearl St
EMS (Emergency Medical Services),Kittitas Valley Fire and Rescue,Ellensburg,-120.51413,46.99882,2020 Vantage Hwy
EMS (Emergency Medical Services),Kittitas County FD #3,Easton,-121.176485,47.233857,180 Cabin Creek Rd
EMS (Emergency Medical Services),Vantage Fire Department,Vantage,-119.989621,46.945701,US 10 and Joyce St
EMS (Emergency Medical Services),Kittitas County FD #6,Ronald,-121.07355,47.27332,14100 Salomon La Sac Rd
EMS (Emergency Medical Services),Kittitas County FD #6,Ronald,-121.02361,47.23387,70 Atlantic Ave
EMS (Emergency Medical Services),Kittitas County Fire and Rescue 7,Cle Elum,-121.094522,47.289193,16660 Salmon La Sac Rd
EMS (Emergency Medical Services),Kittitas County Fire and Rescue 7,Cle Elum,-121.05125,47.19566,21 Chepoda Rd
EMS (Emergency Medical Services),Kittitas County Fire and Rescue 7,Cle Elum,-120.98408,47.20518,31 Firehouse Rd
EMS (Emergency Medical Services),Kittitas County Fire and Rescue 7,South Cle Elum,-120.95165,47.18686,523 Lincoln Ave
EMS (Emergency Medical Services),Kittitas County Fire and Rescue 7,Cle Elum,-120.935325,47.175156,921 Upper Peoh Point Rd
EMS (Emergency Medical Services),Kittitas County Fire and Rescue 7,Cle Elum,-120.90535,47.27017,111 Middle Fork Teanaway Rd
EMS (Emergency Medical Services),Kittitas County Fire and Rescue 7,Cle Elum,-120.85681,47.17656,5511 Airport Rd
EMS (Emergency Medical Services),Snoqualmie Fire Department,Easton,-121.24869,47.30911,3012 Via Kachess Rd
EMS (Emergency Medical Services),Cle Elum Fire Department,Cle Elum,-120.93835,47.19594,301 N Pennsylvania Ave
EMS (Emergency Medical Services),Cle Elum Fire Department,Cle Elum,-120.92068,47.19324,204 Columbia Ave
EMS (Emergency Medical Services),Kittitas Volunteer Fire Department,Kittitas,-120.41773,46.9844,209 N Main St
EMS (Emergency Medical Services),South Cle Elum Fire Department,South Cle Elum,-120.95165,47.18686,523 Lincoln Ave
EMS (Emergency Medical Services),Upper Kititas County Medic One,Cle Elum,-120.95005,47.19502,505 Power St
EMS (Emergency Medical Services),Klickitat County FD #1,Trout Lake,-121.53511,45.99837,2415 Highway 141
EMS (Emergency Medical Services),Klickitat County FD #2,Bickleton,-120.30388,45.99797,15 E Market St
EMS (Emergency Medical Services),Klickitat County FD #3,Husum,-121.48701,45.79795,200 Husum St
EMS (Emergency Medical Services),Klickitat County FD #3,White Salmon,-121.45485,45.75998,429 Snowden Rd
EMS (Emergency Medical Services),Klickitat County FD #3,White Salmon,-121.4099,45.79948,959 Snowden Rd
EMS (Emergency Medical Services),Lyle Fire Department,Lyle,-121.28537,45.69287,514 Washington St
EMS (Emergency Medical Services),Klickitat County Rural 7 Fire and Rescue,Goldendale,-120.82783,45.8181,327 W Brooks Ave
EMS (Emergency Medical Services),Klickitat County FD #8,Glenwood,-121.28902,46.01964,205 Division St
EMS (Emergency Medical Services),Klickitat County FD #9,Roosevelt,-120.21649,45.74343,211 Columbia
EMS (Emergency Medical Services),Klickitat County FD #12,Klickitat,-121.151651,45.818681,J Neils and Durkee Rd
EMS (Emergency Medical Services),Klickitat County FD #13,Lyle,-121.33956,45.78285,81 Cimmiyotti Rd
EMS (Emergency Medical Services),Klickitat County FD #14,Lyle,-121.18497,45.71945,701 Struck Rd
EMS (Emergency Medical Services),Klickitat County FD #15,Wahkiacus,-121.1262,45.86511,12 Mill Dr
EMS (Emergency Medical Services),Goldendale FD,Goldendale,-120.82309,45.81434,1103 S Coumbus Ave
EMS (Emergency Medical Services),Klickitat County EMS District #1,White Salmon,-121.47017,45.72252,211 Skyline Dr
EMS (Emergency Medical Services),Klickitat County EMS District #1,Dallesport,-121.17325,45.61796,17 Airport Way
EMS (Emergency Medical Services),Klickitat County EMS District #1,Goldendale,-120.81162,45.81947,310 S Roosevelt
EMS (Emergency Medical Services),Lewis County FD #1,Onalaska,-122.71931,46.57743,244 Carlisle Ave
EMS (Emergency Medical Services),Lewis County FD #1,Onalaska,-122.60917,46.61139,3030 State Rt 508
EMS (Emergency Medical Services),Lewis County FD #2,Winlock,-122.89545,46.47928,104 N Military Rd
EMS (Emergency Medical Services),Lewis County FD #2,Toledo,-122.84602,46.43968,150 North 2nd St
EMS (Emergency Medical Services),Lewis County FD #2,Chehalis,-122.82233,46.54831,4187 Jackson Hwy
EMS (Emergency Medical Services),Lewis County FD #2,Toledo,-122.78483,46.49262,880 Tucker Rd
EMS (Emergency Medical Services),Lewis County FD #3,Mossyrock,-122.48464,46.52933,137 East Main St
EMS (Emergency Medical Services),Lewis County FD #4,Morton,-122.27685,46.55857,105 Third St
EMS (Emergency Medical Services),Lewis County FD #5,Napavine,-122.91025,46.57528,115 E Washington St
EMS (Emergency Medical Services),Lewis County FD #6,Chehalis,-123.05766,46.63584,182 Dieckman Rd
EMS (Emergency Medical Services),Lewis County FD #6,Chehalis,-122.9798,46.63279,120 Galaxie Rd
EMS (Emergency Medical Services),Lewis County FD #6,Chehalis,-122.93772,46.6467,2123 Jackson Hwy
EMS (Emergency Medical Services),Lewis County FD #6,Chehalis,-122.83746,46.6342,699 Logan Hill Rd
EMS (Emergency Medical Services),Lewis County FD #6,Chehalis,-122.79365,46.62644,898 North Fork Rd
EMS (Emergency Medical Services),Lewis County FD #7,Ryderwood,-123.04349,46.37066,101 First St
EMS (Emergency Medical Services),Lewis County FD #7,Vader,-122.9593,46.40057,801 B St
EMS (Emergency Medical Services),Lewis County FD #8,Salkum,-122.62847,46.53123,2490 US Hwy 12
EMS (Emergency Medical Services),Lewis County FD #8,Cinebar,-122.131903,46.528997,110 Justice Rd
EMS (Emergency Medical Services),Lewis County FD #9,Mineral,-122.18168,46.71784,104 Front St
EMS (Emergency Medical Services),Lewis County FD #10,Packwood,-121.674767,46.602867,12953 US Hwy 12
EMS (Emergency Medical Services),Lewis County FD #13,Curtis,-123.13269,46.5484,997 Boistfort Rd
EMS (Emergency Medical Services),Lewis County FD #13,Chehalis,-123.11407,46.57511,3273 King Rd
EMS (Emergency Medical Services),Lewis County FD #13,Vader,-123.0564,46.39987,716 Wildwood Rd
EMS (Emergency Medical Services),Lewis County FD #14,Randle,-121.938,46.53436,9978 US Hwy 12
EMS (Emergency Medical Services),Lewis County FD #14,Randle,-121.85894,46.43891,2213 Cispus Rd
EMS (Emergency Medical Services),Lewis County FD #15,Winlock,-122.93835,46.49387,607 NW Kerron St
EMS (Emergency Medical Services),Lewis County FD #17,Ashford,-121.98433,46.73606,136 Osborn Rd
EMS (Emergency Medical Services),Lewis County FD #18,Glenoma,-122.13249,46.52855,8022 US Hwy 12
EMS (Emergency Medical Services),City of Chehalis Fire Department,Chealis,-122.97081,46.66396,455 NW Park St
EMS (Emergency Medical Services),Riverside Fire Authority,Centralia,-123.206689,46.735767,2237 Lincoln Creek Rd
EMS (Emergency Medical Services),Riverside Fire Authority,Centralia,-122.99083,46.73796,1818 Harrison Ave
EMS (Emergency Medical Services),Riverside Fire Authority,Centralia,-122.95368,46.72036,512 N Pearl St
EMS (Emergency Medical Services),Riverside Fire Authority,Centralia,-122.90794,46.70682,2378 Seminary Hill Rd
EMS (Emergency Medical Services),Pe Ell Volunteer Fire Department,Pe Ell,-123.296013,46.576762,800 N Main St
EMS (Emergency Medical Services),American Medical Response,Centralia,-122.97314,46.71054,1218 Borthwick St
EMS (Emergency Medical Services),Lincoln County FD #1,Sprague,-117.97723,47.30035,113 C St
EMS (Emergency Medical Services),Lincoln County FD #1,Sprague,-117.97663,47.29918,119 W 2nd
EMS (Emergency Medical Services),Lincoln County FD #4,Edwall,-117.95034,47.50574,48003 Main Ave E
EMS (Emergency Medical Services),Lincoln County FD #4,Reardan,-117.88085,47.66933,135 S Lake St
EMS (Emergency Medical Services),Lincoln County FD #6,Harrington,-118.25491,47.47971,308 W Willis
EMS (Emergency Medical Services),Lincoln County FD #7,Lincoln,-118.43025,47.82569,38775 Sterling Valley Rd N
EMS (Emergency Medical Services),Almira Fire and Rescue,Almira,-118.93984,47.71164,11 N 2nd St
EMS (Emergency Medical Services),Creston Ambulance,Creston,-118.51973,47.75845,135 Creston Ave
EMS (Emergency Medical Services),Wilbur Fire Department,Wilbur,-118.70485,47.75858,14 NW Division St
EMS (Emergency Medical Services),Davenport Ambulance,Davenport,-118.14619,47.65711,10 Nicholls St
EMS (Emergency Medical Services),Odessa Memorial Healthcare Center,Odessa,-118.69085,47.33424,01 North Division St
EMS (Emergency Medical Services),Mason County FD #1,Hoodsport,-123.14617,47.40598,331 N Finch Creek Rd
EMS (Emergency Medical Services),Mason County FD #3,Grapeview,-122.94165,47.28732,91 Krabbenhoft Rd
EMS (Emergency Medical Services),Mason County FD #3,Grapeview,-122.836,47.32824,4350 Grapeview Lp Rd
EMS (Emergency Medical Services),Mason County FD #4,Shelton,-123.10018,47.17837,130 W Golden Pheasant Rd
EMS (Emergency Medical Services),Mason County FD #4,Shelton,-123.0939,47.12729,3660 SE Old Olympic Hwy
EMS (Emergency Medical Services),Mason County FD #4,Shelton,-123.03181,47.1993,2970 SE Arcadia RD
EMS (Emergency Medical Services),Central Mason Fire and EMS,Shelton,-123.10052,47.21394,122 W Franklin St
EMS (Emergency Medical Services),Central Mason Fire and EMS,Shelton,-123.05318,47.27512,21 St. Andrews Pl
EMS (Emergency Medical Services),Central Mason Fire and EMS,Shelton,-122.94017,47.27049,1741 E Pikering Rd
EMS (Emergency Medical Services),Central Mason Fire and EMS,Grapeview,-122.927,47.34322,2520 Mason Benson
EMS (Emergency Medical Services),Central Mason Fire and EMS,Allyn,-122.82968,47.38264,18411 SR 3
EMS (Emergency Medical Services),Mason County FD #6,Shelton,-123.12759,47.24324,130 E Island Lk Rd
EMS (Emergency Medical Services),Mason County FD #6,Union,-123.0995,47.35517,50 E Seattle St
EMS (Emergency Medical Services),Mason County FD #6,Union,-123.07035,47.33562,1091 E Manzanita
EMS (Emergency Medical Services),Mason County FD #8,Tahuya,-123.05414,47.37256,14880 NE Northshore Rd
EMS (Emergency Medical Services),Mason County FD #8,Tahuya,-123.03336,47.40133,9550 NE Belfair Tahuya Rd
EMS (Emergency Medical Services),Mason County FD #8,Belfair,-123.01116,47.38477,620 NE Hurd Rd
EMS (Emergency Medical Services),Mason County FD #9,Shelton,-123.21034,47.31671,2320 W Skokomish Valley Rd
EMS (Emergency Medical Services),Mason County FD #9,Shelton,-123.12993,47.28054,50 E Road Runner Dr
EMS (Emergency Medical Services),Mason County FD #11,Shelton,-123.12759,47.24324,130 E Island Lk Rd
EMS (Emergency Medical Services),Mason County FD #12,Elma,-123.43264,47.20027,2950 West Matlock-Brady Rd
EMS (Emergency Medical Services),Mason County FD #13,Elma,-123.31072,47.13427,13375 W Cloquallum Rd
EMS (Emergency Medical Services),Mason County FD #13,McCleary,-123.29753,47.07262,33 Wildcat Rd
EMS (Emergency Medical Services),Mason County FD #13,Shelton,-123.16817,47.16072,5491 W Cloquallum Rd
EMS (Emergency Medical Services),Mason County FD #17,Lilliwaup,-123.05182,47.52358,34571 N. US Highway 101
EMS (Emergency Medical Services),Mason County FD #18,Hoodsport,-123.21329,47.42392,240 N. Standstill Dr. S.
EMS (Emergency Medical Services),North Mason Regional Fire Authority,Tahuya,-123.05414,47.37256,14880 NE Northshore Rd
EMS (Emergency Medical Services),North Mason Regional Fire Authority,Tahuya,-123.03336,47.40133,9550 NE Belfair Tahuya Rd
EMS (Emergency Medical Services),North Mason Regional Fire Authority,Tahuya,-122.98281,47.43253,60 NE Collins Lk Dr
EMS (Emergency Medical Services),North Mason Regional Fire Authority,Belfair,-122.82682,47.46032,460 NE Old Belfair Hwy
EMS (Emergency Medical Services),Mason County Medic One,Shelton,-123.11996,47.22265,2019 Jefferson St
EMS (Emergency Medical Services),Okanogan County FD #3,Malott,-119.70595,48.28403,3 Columbia St
EMS (Emergency Medical Services),Okanogan County FD #3,Okanogan,-119.58088,48.3645,235 Oak St
EMS (Emergency Medical Services),Okanogan County FD #3,Omak,-119.52952,48.41145,16 N Ash St
EMS (Emergency Medical Services),Loomis Fire and Rescue,Loomis,-119.60667,48.89544,1772 Loomis Oroville Rd
EMS (Emergency Medical Services),Douglas Okanogan County FD #15,Brewster,-119.78174,48.09836,412 W Indian Ave
EMS (Emergency Medical Services),Okanogan County FD #16,Tonasket,-119.0866,48.59104,6 Main Rd
EMS (Emergency Medical Services),Conconully Fire Department,Conconully,-119.75013,48.55917,220 N Main St
EMS (Emergency Medical Services),Aero Methow Rescue Service,Mazama,-120.49201,48.64627,611 Lost River Rd
EMS (Emergency Medical Services),Aero Methow Rescue Service,Mazama,-120.40977,48.58625,17958 Hwy 20
EMS (Emergency Medical Services),Aero Methow Rescue Service,Winthrop,-120.18224,48.47923,309 Bluff St
EMS (Emergency Medical Services),Aero Methow Rescue Service,Twisp,-120.10332,48.35748,1005 Hwy 20 East
EMS (Emergency Medical Services),Coville Tribal EMS,Nespelem,-118.97768,48.16561,405 10th St
EMS (Emergency Medical Services),Life Line Ambulance,Okanogan,-119.55089,48.38969,2590 Elmway
EMS (Emergency Medical Services),Pacific County FD #1,Ocean Park,-124.0561,46.53528,32201 H Place
EMS (Emergency Medical Services),Pacific County FD #1,Seaview,-124.05378,46.32901,3706 N Place
EMS (Emergency Medical Services),Pacific County FD #1,Ocean Park,-124.04929,46.49201,26109 Ridge Ave
EMS (Emergency Medical Services),Pacific County FD #5,Grayland,-124.08157,46.77121,2829 State Route 105
EMS (Emergency Medical Services),Long Beach Fire Department,Long Beach,-124.05274,46.35598,701 Washington Ave N.
EMS (Emergency Medical Services),Raymond Fire Department,Bay Center,-123.95343,46.61754,6 Harrison St
EMS (Emergency Medical Services),Raymond Fire Department,South Bend,-123.86363,46.51285,202 Nemah Rd E
EMS (Emergency Medical Services),Raymond Fire Department,Raymond,-123.73427,46.68544,212 Commercial St
EMS (Emergency Medical Services),Raymond Fire Department,Raymond,-123.64875,46.62308,1006 SR 6
EMS (Emergency Medical Services),Raymond Fire Department,Raymond,-123.55345,46.56011,2344 SR 6
EMS (Emergency Medical Services),Naselle Volunteer FD,Naselle,-123.802463,46.375195,5 County Shed Rd
EMS (Emergency Medical Services),Medix Ambulance Service INC,Ilwaco,-124.04127,46.30896,212 NE Spruce St
EMS (Emergency Medical Services),Pend Oreille County FD #2,Cusick,-117.4062,48.68498,390442 SR 20
EMS (Emergency Medical Services),Pend Oreille County FD #2,Metaline Falls,-117.37213,48.86066,206 E 3rd Ave
EMS (Emergency Medical Services),Pend Oreille County FD #2,Cusick,-117.33848,48.57697,21291 LeClerc Rd N
EMS (Emergency Medical Services),Pend Oreille County FD #2,Ione,-117.41957,48.73948,302 Central Ave
EMS (Emergency Medical Services),South Pend Oreille Fire and Rescure,Newport,-117.36055,48.10679,11 Jermain Rd
EMS (Emergency Medical Services),South Pend Oreille Fire and Rescure,Newport,-117.30167,48.17744,6131 Hwy 211
EMS (Emergency Medical Services),South Pend Oreille Fire and Rescure,Elk,-117.2866,48.0536,4193 Allen Rd
EMS (Emergency Medical Services),South Pend Oreille Fire and Rescure,Newport,-117.20634,48.11867,325272 Highway 2
EMS (Emergency Medical Services),South Pend Oreille Fire and Rescure,Newport,-117.14972,48.15979,8165 Deer Valley Rd
EMS (Emergency Medical Services),Pend Oreille County FD #4,Newport,-117.2416,48.24927,11 Dalkena St
EMS (Emergency Medical Services),Pend Oreille County FD #5,Cusick,-117.2695,48.48724,406722 Hwy 20
EMS (Emergency Medical Services),Pend Oreille County FD #6,Newport,-117.17635,48.24237,7572 Le Clerc Rd S
EMS (Emergency Medical Services),Pend Oreille County FD #8,Newport,-117.07794,48.08649,4941 Spring Valley Rd
EMS (Emergency Medical Services),City of Anacortes Fire Department,Anacortes,-122.67576,48.49893,5209 Sunset Ave
EMS (Emergency Medical Services),City of Anacortes Fire Department,Anacortes,-122.61343,48.51203,1016 13th St
EMS (Emergency Medical Services),City of Anacortes Fire Department,Anacortes,-122.54443,48.46145,9029 Molley Lane
EMS (Emergency Medical Services),Cusick Fire Department,Cusick,-117.29465,48.33709,103 1st Ave
EMS (Emergency Medical Services),Ione Fire Department,Ione,-117.41969,48.73941,304 Central Ave
EMS (Emergency Medical Services),Ponderay Newsprint Ambulance,Usk,-117.27242,48.28835,422767 Hwy 20
EMS (Emergency Medical Services),Kalispel Tribal Fire Department,Usk,-117.272613,48.363605,3572 Le Clerc Rd N
EMS (Emergency Medical Services),AMR (Pend Oreille),Newport,-117.20634,48.11867,325272 Highway 2
EMS (Emergency Medical Services),Pend Oreille EMS,Newport,-117.041594,48.181344,137 S Newport Ave
EMS (Emergency Medical Services),West Pierce Fire and Rescue,Lakewood,-122.55326,47.18137,8310 87th Ave SW
EMS (Emergency Medical Services),West Pierce Fire and Rescue,Lakewood,-122.55079,47.14896,8517 Washington Blvd SW
EMS (Emergency Medical Services),West Pierce Fire and Rescue,Lakewood,-122.55053,47.12677,14505 Grant Ave SW
EMS (Emergency Medical Services),West Pierce Fire and Rescue,University Place,-122.53465,47.22478,3631 Drexler Dr W
EMS (Emergency Medical Services),West Pierce Fire and Rescue,Lakewood,-122.50351,47.17638,5000 Steilacoom Blvd SW
EMS (Emergency Medical Services),West Pierce Fire and Rescue,Lakewood,-122.49068,47.15789,10928 Pacific Hwy SW
EMS (Emergency Medical Services),Gig Harbor Fire and Medic One,Gig Harbor,-122.67131,47.29883,4518 Ray Nash Dr
EMS (Emergency Medical Services),Gig Harbor Fire and Medic One,Gig Harbor,-122.64156,47.32912,7710 Rosedale St NW
EMS (Emergency Medical Services),Gig Harbor Fire and Medic One,Gig Harbor,-122.62289,47.35235,10302 Bujacich Rd
EMS (Emergency Medical Services),Gig Harbor Fire and Medic One,Gig Harbor,-122.62234,47.2932,3828 62nd Ave Ct NW
EMS (Emergency Medical Services),Gig Harbor Fire and Medic One,Fox Island,-122.62088,47.24258,906 Kamus Dr
EMS (Emergency Medical Services),Gig Harbor Fire and Medic One,Gig Harbor,-122.60981,47.3874,14201 54th Ave NW
EMS (Emergency Medical Services),Gig Harbor Fire and Medic One,Gig Harbor,-122.6072,47.38806,5210 144th St NW
EMS (Emergency Medical Services),Gig Harbor Fire and Medic One,Gig Harbor,-122.58561,47.31945,6711 Kimball Dr
EMS (Emergency Medical Services),Gig Harbor Fire and Medic One,Gig Harbor,-122.58087,47.27705,2217 Point Fosdick Dr
EMS (Emergency Medical Services),Gig Harbor Fire and Medic One,Gig Harbor,-122.57773,47.35421,10521 Crescent Valley Dr
EMS (Emergency Medical Services),Central Pierce Fire and Rescue,Tacoma,-122.43607,47.12483,301 146th St S
EMS (Emergency Medical Services),Central Pierce Fire and Rescue,Tacoma,-122.43204,47.15301,100 S 114th St
EMS (Emergency Medical Services),Central Pierce Fire and Rescue,Tacoma,-122.40743,47.16964,9512 17th Ave E
EMS (Emergency Medical Services),Central Pierce Fire and Rescue,Tacoma,-122.40108,47.09738,17520 22nd Ave E
EMS (Emergency Medical Services),Central Pierce Fire and Rescue,Spanaway,-122.38377,47.05337,3421 224th St E
EMS (Emergency Medical Services),Central Pierce Fire and Rescue,Puyallup,-122.35664,47.13311,5401 136 St E
EMS (Emergency Medical Services),Central Pierce Fire and Rescue,Puyallup,-122.35653,47.18357,8005 Canyon Rd E
EMS (Emergency Medical Services),Central Pierce Fire and Rescue,Puyallup,-122.30294,47.18426,902 7th St SW
EMS (Emergency Medical Services),Central Pierce Fire and Rescue,Puyallup,-122.298077,47.140415,9813 128th St E
EMS (Emergency Medical Services),Central Pierce Fire and Rescue,Puyallup,-122.29695,47.1907,311 W Pioneer Ave
EMS (Emergency Medical Services),Central Pierce Fire and Rescue,Puyallup,-122.28535,47.09933,17210 110th Ave E
EMS (Emergency Medical Services),Central Pierce Fire and Rescue,Puyallup,-122.25745,47.15751,3509 27th St SE
EMS (Emergency Medical Services),Pierce County FD #13,Tacoma,-122.43626,47.30116,4815 WA Tau GA Ave NE
EMS (Emergency Medical Services),Pierce County FD #13,Tacoma,-122.41955,47.31721,2101 Dogwood Ave NE
EMS (Emergency Medical Services),Pierce County FD #14,Puyallup,-122.35562,47.22,4114 56th Ave E
EMS (Emergency Medical Services),Key Peninsula Fire Department,Lakebay,-122.76725,47.27548,1921 Key Peninsula Hwy
EMS (Emergency Medical Services),Key Peninsula Fire Department,Gig Harbor,-122.764157,47.370049,12310 Wright Bliss Rd
EMS (Emergency Medical Services),Key Peninsula Fire Department,Longbranch,-122.75843,47.2184,4215 Key Peninsula Hwy
EMS (Emergency Medical Services),Key Peninsula Fire Department,Lakebay,-122.74613,47.3389,8911 Key Peninsula Hwy
EMS (Emergency Medical Services),Key Peninsula Fire Department,Gig Harbor,-122.675736,47.388823,10320 SR 302 NW
EMS (Emergency Medical Services),South Pierce Fire and Rescue #17,Roy,-122.54333,47.00249,302 Mc Naught
EMS (Emergency Medical Services),South Pierce Fire and Rescue #17,Eatonville,-122.35679,46.94774,5403 340th St E
EMS (Emergency Medical Services),South Pierce Fire and Rescue #17,Eatonville,-122.35679,46.94774,5403 340th St E
EMS (Emergency Medical Services),South Pierce Fire and Rescue #17,Eatonville,-122.28281,46.92307,11111 Trek Dr E
EMS (Emergency Medical Services),South Pierce Fire and Rescue #17,Eatonville,-122.268313,46.867308,21 Center St W
EMS (Emergency Medical Services),Orting Valley Fire and Rescue,Orting,-122.22563,47.07858,19503 Orting Kapowsin Hwy E
EMS (Emergency Medical Services),Orting Valley Fire and Rescue,Orting,-122.20019,47.09488,401 Washington Ave SE
EMS (Emergency Medical Services),Orting Valley Fire and Rescue,Orting,-122.12377,47.0778,19702 Patterson Rd E
EMS (Emergency Medical Services),Pierce County FD #21,Graham,-122.3388,47.04751,23014 70th Ave E
EMS (Emergency Medical Services),Pierce County FD #21,Graham,-122.32529,46.97927,8102 304th St E
EMS (Emergency Medical Services),Pierce County FD #21,Puyallup,-122.32507,47.0857,18721 78th Ave E
EMS (Emergency Medical Services),Pierce County FD #21,Puyallup,-122.29582,47.08588,10012 187th St E
EMS (Emergency Medical Services),Pierce County FD #21,Graham,-122.26033,47.05284,12827 224th St E
EMS (Emergency Medical Services),Pierce County FD #21,Graham,-122.23791,46.98523,14809 Kapowsin Hwy East
EMS (Emergency Medical Services),East Pierce Fire and Rescue,Milton,-122.32093,47.24922,1000 Laurel St
EMS (Emergency Medical Services),East Pierce Fire and Rescue,Edgewood,-122.29488,47.23577,10105 24th St E
EMS (Emergency Medical Services),East Pierce Fire and Rescue,Sumner,-122.24442,47.1998,800 Harrison St
EMS (Emergency Medical Services),East Pierce Fire and Rescue,Lake Tapps,-122.20124,47.22773,3206 W Tapps Dr E
EMS (Emergency Medical Services),East Pierce Fire and Rescue,Bonney Lake,-122.18381,47.17806,18421 Veterans Memorial Dr E
EMS (Emergency Medical Services),East Pierce Fire and Rescue,Bonney Lake,-122.157599,47.204741,27723 Aqua Dr E
EMS (Emergency Medical Services),East Pierce Fire and Rescue,Lake Tapps,-122.14732,47.2428,1605 210th Ave E
EMS (Emergency Medical Services),East Pierce Fire and Rescue,Bonney Lake,-122.14505,47.14703,12006 214th Ave E
EMS (Emergency Medical Services),East Pierce Fire and Rescue,Buckley,-122.11687,47.16129,10515 234th Ave E
EMS (Emergency Medical Services),East Pierce Fire and Rescue,South Praire,-122.09418,47.13986,350 State Route 162
EMS (Emergency Medical Services),Pierce County FD #23,Eatonville,-122.27132,46.79671,50602 Mt. Hwy E
EMS (Emergency Medical Services),Pierce County FD #23,Elbe,-122.19283,46.76597,18106 541st St E
EMS (Emergency Medical Services),Pierce County FD #23,Ashford,-122.04356,46.75951,29515 SR 706 E
EMS (Emergency Medical Services),Pierce County FD #26,Enumclaw,-121.6365,47.14495,59705 SR 410 East
EMS (Emergency Medical Services),Pierce County FD #26,Enumclaw,-121.61411,47.11337,15922 Crystal River Ranch Rd
EMS (Emergency Medical Services),Anderson Island Fire and Rescue,Anderson Island,-122.70285,47.16603,12207 Lake Josephine Blvd
EMS (Emergency Medical Services),City of Buckley Fire Department,Buckley,-122.03177,47.15497,611 S Division St
EMS (Emergency Medical Services),Town of Carbonado Fire Department,Carbonado,-122.05254,47.07983,819 8th Ave
EMS (Emergency Medical Services),Dupont Fire Department,Dupont,-122.647,47.10598,1780 Civic Dr
EMS (Emergency Medical Services),Ruston Fire Department,Ruston,-122.51252,47.29878,5117 N Winnifred St
EMS (Emergency Medical Services),Steilacoom Department of Public Safety,Steilacoom,-122.59432,47.17053,601 Main St
EMS (Emergency Medical Services),Tacoma Fire Department,Tacoma,-122.53309,47.25538,7216 6th Ave
EMS (Emergency Medical Services),Tacoma Fire Department,Fircrest,-122.50987,47.23514,302 Regents Blvd
EMS (Emergency Medical Services),Tacoma Fire Department,Tacoma,-122.50497,47.22978,3401 S Orchard St
EMS (Emergency Medical Services),Tacoma Fire Department,Tacoma,-122.50009,47.28607,4701 N 41st St
EMS (Emergency Medical Services),Tacoma Fire Department,Tacoma,-122.48856,47.2704,3825 N 25th St
EMS (Emergency Medical Services),Tacoma Fire Department,Tacoma,-122.4825,47.25502,3502 6th Ave
EMS (Emergency Medical Services),Tacoma Fire Department,Tacoma,-122.48188,47.20649,5448 S Warner St
EMS (Emergency Medical Services),Tacoma Fire Department,Tacoma,-122.45795,47.21251,4911 S Alaska St
EMS (Emergency Medical Services),Tacoma Fire Department,Tacoma,-122.45657,47.25058,1453 S 12th St
EMS (Emergency Medical Services),Tacoma Fire Department,Tacoma,-122.44295,47.25466,901 S Fawcett Ave
EMS (Emergency Medical Services),Tacoma Fire Department,Tacoma,-122.44169,47.1908,7247 S Park Ave
EMS (Emergency Medical Services),Tacoma Fire Department,Tacoma,-122.44047,47.23622,2701 Tacoma Ave S
EMS (Emergency Medical Services),Tacoma Fire Department,Tacoma,-122.43113,47.25427,302 E 11th St
EMS (Emergency Medical Services),Tacoma Fire Department,Tacoma,-122.42894,47.25572,1015 E F St
EMS (Emergency Medical Services),Tacoma Fire Department,Tacoma,-122.42119,47.22294,3802 E McKinley Ave
EMS (Emergency Medical Services),Tacoma Fire Department,Tacoma,-122.42051,47.19845,6415 E McKinley Ave
EMS (Emergency Medical Services),Tacoma Fire Department,Tacoma,-122.38531,47.28699,206 Browns Pt Blvd NE
EMS (Emergency Medical Services),Tacoma Fire Department,Fife,-122.35659,47.23819,2015 54th Ave E
EMS (Emergency Medical Services),Joint Base Lewis-McChord Fire and EMS,Tacoma,-122.61979,47.0912,4100 West Way
EMS (Emergency Medical Services),Joint Base Lewis-McChord Fire and EMS,Tacoma,-122.584706,47.079638,3081 Airport Way
EMS (Emergency Medical Services),Joint Base Lewis-McChord Fire and EMS,Tacoma,-122.53933,47.10111,827 Lincoln Blvd
EMS (Emergency Medical Services),Joint Base Lewis-McChord Fire and EMS,Tacoma,-122.539299,47.106163,9986 Garfiled
EMS (Emergency Medical Services),Joint Base Lewis-McChord Fire and EMS,Tacoma,-122.48283,47.13621,6 McCarthy Blvd
EMS (Emergency Medical Services),Joint Base Lewis-McChord Fire and EMS,Tacoma,-122.40681,47.15218,11565 17th St
EMS (Emergency Medical Services),McNeil Island Fire Department,McNeil Island,-122.659131,47.199054,1 Coastal Rd
EMS (Emergency Medical Services),Aero Skagit EMS,Concrete,-121.74645,48.53943,7286 Baker St
EMS (Emergency Medical Services),Madigan Ambulance,Fort Lewis,-122.553487,47.10902,9040 Jackson Ave
EMS (Emergency Medical Services),American Medical Response,Buckley,-122.03177,47.15497,611 S Division St
EMS (Emergency Medical Services),Greenwater Rescue,Enumclaw,-121.60202,47.10589,16718 Alpine Dr E
EMS (Emergency Medical Services),Rural Metro Ambulance,Fife,-122.36039,47.237,2105 51st Ave E
EMS (Emergency Medical Services),Falck Northwest,Fife,-122.3605,47.23711,5102 20th St E
EMS (Emergency Medical Services),Orcas Fire and Rescue,Deer Harbor,-123.00089,48.625847,59 Channel Rd
EMS (Emergency Medical Services),Orcas Fire and Rescue,Eastsound,-122.9085,48.7021,45 Lavender Ln
EMS (Emergency Medical Services),San Juan County FD #4,Lopez Island,-122.91037,48.52174,2228 Fisherman Bay Rd
EMS (Emergency Medical Services),San Juan County FD #4,Lopez Island,-122.8994,48.49468,4136 Center Rd
EMS (Emergency Medical Services),San Juan County FD #5,Shaw Island,-122.94067,48.57227,1385 Blind Bay Rd
EMS (Emergency Medical Services),San Juan County FD #5,Shaw Island,-122.93992,48.57209,44 Squaw Bay Rd
EMS (Emergency Medical Services),San Juan Island EMS and MedEvac,Friday Harbor,-123.02787,48.52998,1079 Spring St
EMS (Emergency Medical Services),San Juan Island EMS and MedEvac,Friday Harbor,-123.0169,48.53652,204 Front St
EMS (Emergency Medical Services),Skagit County FD #2,Mount Vernon,-122.41688,48.44317,15271 SR 536
EMS (Emergency Medical Services),Skagit County FD #2,Mount Vernon,-122.40101,48.4215,15452 Beaver Marsh Rd
EMS (Emergency Medical Services),Skagit County FD #3,Conway,-122.346508,48.340733,21020 Greenfield St
EMS (Emergency Medical Services),Skagit County FD #3,Mount Vernon,-122.31981,48.38439,19746 E Hickox Rd
EMS (Emergency Medical Services),Skagit County FD #4,Clearlake,-122.23331,48.46059,23624 Jackson St
EMS (Emergency Medical Services),Skagit Count FD#4,Mount Vernon,-122.264294,48.429736,14800 Hwy 9
EMS (Emergency Medical Services),Skagit County FD #5,Bow,-122.52333,48.57304,10347 Halloran Rd
EMS (Emergency Medical Services),Skagit County FD #5,Bow,-122.44201,48.61723,1904 Chuckanut Ridge Dr
EMS (Emergency Medical Services),Skagit County FD #5,Bow,-122.43693,48.56244,14304 W Bow Hill Rd
EMS (Emergency Medical Services),Skagit County FD #5,Bow,-122.37777,48.51482,9061 Avon Allen Rd
EMS (Emergency Medical Services),Skagit County FD #6,Burlington,-122.39584,48.47175,16220 Peterson Rd
EMS (Emergency Medical Services),Lake Cavanaugh Volunteer Fire Department,Mount Vernon,-121.98745,48.30857,35058 S Shore Dr
EMS (Emergency Medical Services),Lake Cavanaugh Volunteer Fire Department,Mount Vernon,-122.02877,48.32665,33082 Deer Park Lane
EMS (Emergency Medical Services),Skagit County FD #8,Sedro Woolley,-122.29053,48.56177,20464 Prairie Rd
EMS (Emergency Medical Services),Skagit County FD #8,Sedro Woolley,-122.25914,48.58845,3897 Saje Lane
EMS (Emergency Medical Services),Skagit County FD #8,Sedro Woolley,-122.23151,48.59823,3212 SR 9
EMS (Emergency Medical Services),Skagit County FD #8,Sedro Woolley,-122.22754,48.54941,23900 Hoogdal Rd
EMS (Emergency Medical Services),Skagit County FD #8,Lyman,-122.06028,48.52597,8334 S Main St
EMS (Emergency Medical Services),Skagit County FD #8,Sedro Woolley,-122.05769,48.52734,8168 Pipeline Rd
EMS (Emergency Medical Services),Skagit County FD #8,Sedro Woolley,-122.00533,48.53057,34041 SR 20
EMS (Emergency Medical Services),Skagit County FD #9,Mount Vernon,-122.24522,48.40352,16818 W Big Lake Blvd
EMS (Emergency Medical Services),Skagit County FD #9,Mount Vernon,-122.20474,48.36263,19547 SR 9
EMS (Emergency Medical Services),Skagit County FD #10,Concrete,-121.8751,48.52409,8391 Russell Rd
EMS (Emergency Medical Services),Skagit County FD #10,Concrete,-121.7742,48.53721,44654 SR 20
EMS (Emergency Medical Services),Mt Erie Fire Department,Anacortes,-122.65251,48.45667,4214 Wildwood Ln
EMS (Emergency Medical Services),Mt Erie Fire Department,Anacortes,-122.60696,48.42889,14825 Deception Rd
EMS (Emergency Medical Services),Bay View Volunteer Fire Department,Mount Vernon,-122.4747,48.48536,12587 C St
EMS (Emergency Medical Services),Skagit County FD #13,Anacortes,-122.55647,48.45783,8652 Stevenson Rd
EMS (Emergency Medical Services),Skagit County FD #13,La Conner,-122.51713,48.39356,17433 Snee Oosh Rd
EMS (Emergency Medical Services),Skagit County FD #13,La Conner,-122.48771,48.39214,12142 Chilberg Rd
EMS (Emergency Medical Services),Skagit County FD #14,Bow,-122.36155,48.5711,5231 Hobsou Rd
EMS (Emergency Medical Services),Skagit County FD #14,Burlington,-122.33925,48.61477,18726 Parkview Ln
EMS (Emergency Medical Services),Skagit County FD #15,Mount Vernon,-122.23436,48.31508,22790 Front St
EMS (Emergency Medical Services),Day Creek Fire Department,Sedro Woolley,-122.05998,48.50193,31693 S Skagit Hwy
EMS (Emergency Medical Services),Guemas Island Fire Department,Anacortes,-122.62518,48.55279,6310 Guemes Island Rd
EMS (Emergency Medical Services),Skagit County FD #19,Rockport,-121.59682,48.48597,10714 Alfred St
EMS (Emergency Medical Services),Skagit County FD #19,Marblemount,-121.43099,48.52749,60157 SR 20
EMS (Emergency Medical Services),Burlington Fire Department,Burlington,-122.33162,48.46973,350 E Sharon Ave
EMS (Emergency Medical Services),Hamilton Fire Department,Hamilton,-121.9902,48.52731,951 Pettit St
EMS (Emergency Medical Services),La Conner Fire Department,La Conner,-122.48771,48.39214,12142 Chilberg Rd
EMS (Emergency Medical Services),Mount Vernon Fire Department,Mount Vernon,-122.33798,48.41653,901 South 2nd St
EMS (Emergency Medical Services),Mount Vernon Fire Department,Mount Vernon,-122.33079,48.42125,491 East Division St
EMS (Emergency Medical Services),Mount Vernon Fire Department,Mount Vernon,-122.3149,48.43757,1901 N Laventure Rd
EMS (Emergency Medical Services),City of Sedro Woolley Fire Department,Sedro Woolley,-122.23768,48.50876,325 Metcalf St
EMS (Emergency Medical Services),City of Sedro Woolley Fire Department,Sedro Woolley,-122.22678,48.5262,1218 N Township St
EMS (Emergency Medical Services),Central Skagit Medic One,Sedro Woolley,-122.27923,48.49513,2000 Hospital Dr
EMS (Emergency Medical Services),Central Skagit Medic One,Sedro Woolley,-122.25694,48.50044,669 Sunset Park Dr
EMS (Emergency Medical Services),Central Skagit Medic One,Burlington,-122.33294,48.46976,350 Sharon Ave
EMS (Emergency Medical Services),Central Skagit Medic One,Burlington,-122.33314,48.47837,201 Avon Ave
EMS (Emergency Medical Services),Central Skagit Medic One,Mount Vernon,-122.3149,48.43757,1901 N Laventure Rd
EMS (Emergency Medical Services),Central Skagit Medic One,Sedro Woolley,-122.2373,48.50923,325 Metcalf St
EMS (Emergency Medical Services),Central Skagit Medic One,Mount Vernon,-122.40101,48.4215,15452 Beaver Marsh Rd
EMS (Emergency Medical Services),Skamania County FD #4,Washougal,-122.22837,45.60887,10042 Washougal River Rd
EMS (Emergency Medical Services),Skamania County FD #6,Cougar,-122.302297,46.051056,MP 16.5 Forest Road 90
EMS (Emergency Medical Services),Skamania County EMS,Stevenson,-121.88427,45.69265,253 SW 1st St
EMS (Emergency Medical Services),Paine Field,Everett,-122.28202,47.90122,10630 36th Pl W
EMS (Emergency Medical Services),Snohomish County FD #1,Edmonds,-122.37506,47.81203,275 6th Ave N
EMS (Emergency Medical Services),Snohomish County FD #1,Edmonds,-122.35111,47.79032,23009 88th Ave W
EMS (Emergency Medical Services),Snohomish County FD #1,Edmonds,-122.34786,47.82211,8429 196th St SW
EMS (Emergency Medical Services),Snohomish County FD #1,Mount Lake Terrace,-122.31282,47.78822,5902 232nd St SW
EMS (Emergency Medical Services),Snohomish County FD #1,Lynnwood,-122.28616,47.85721,3922 156th St SW
EMS (Emergency Medical Services),Snohomish County FD #1,Brier,-122.27887,47.8053,21206 Poplar Way
EMS (Emergency Medical Services),Snohomish County FD #1,Lynnwood,-122.25046,47.84548,16819 13th Ave W
EMS (Emergency Medical Services),Snohomish County FD #1,Lynnwood,-122.24457,47.8119,20510 Damson Rd
EMS (Emergency Medical Services),Snohomish County FD #1,Everett,-122.23373,47.88617,12310 Meridian Ave
EMS (Emergency Medical Services),Snohomish County FD #1,Everett,-122.18466,47.89996,3525 108th St SE
EMS (Emergency Medical Services),Snohomish County FD #1,Everett,-122.15357,47.87364,13611 Puget Park Dr
EMS (Emergency Medical Services),Snohomish County FD #4,Snohomish,-122.10002,47.92994,1525 Ave D
EMS (Emergency Medical Services),Snohomish County FD #4,Snohomish,-122.08857,47.91622,427 Maple Ave
EMS (Emergency Medical Services),Snohomish County FD #4,Snohomish,-122.00242,47.9346,6724 171st Ave SE
EMS (Emergency Medical Services),Snohomish County FD #5,Sultan,-121.81738,47.86278,304 Alder St
EMS (Emergency Medical Services),Snohomish County FD #7,Mill Creek,-122.21822,47.85895,1020 153rd St SE
EMS (Emergency Medical Services),Snohomish County FD #7,Bothell,-122.18652,47.83498,3431 180th St SE
EMS (Emergency Medical Services),Snohomish County FD #7,Bothell,-122.17252,47.79547,22225 45th Ave SE
EMS (Emergency Medical Services),Snohomish County FD #7,Snohomish,-122.14303,47.85484,6610 Snohomish Cascade Dr
EMS (Emergency Medical Services),Snohomish County FD #7,Snohomish,-122.1244,47.83301,8010 180th St SE
EMS (Emergency Medical Services),Snohomish County FD #7,Snohomish,-122.09882,47.80004,21709 99th Ave SE
EMS (Emergency Medical Services),Snohomish County FD #7,Monroe,-121.98303,47.85005,163 Village Ct
EMS (Emergency Medical Services),Snohomish County FD #7,Monroe,-121.93428,47.87754,22122 132nd St SE
EMS (Emergency Medical Services),Lake Stevens Fire Department,Lake Stevens,-122.09923,47.996,9811 Chapel Hill Rd
EMS (Emergency Medical Services),Lake Stevens Fire Department,Lake Stevens,-122.06277,48.01691,12409 21st St NE
EMS (Emergency Medical Services),Lake Stevens Fire Department,Snohomish,-122.04524,47.98124,13717 Division St
EMS (Emergency Medical Services),Tulalip Bay Fire Department,Tulalip,-122.27596,48.06691,7812 Water Works Rd
EMS (Emergency Medical Services),Snohomish County FD #16,Snohomish,-121.91755,47.98601,1205 S Lake Roesiger Rd
EMS (Emergency Medical Services),Snohomish County FD #17,Granite Falls,-121.96961,48.08238,116 S Granite Ave
EMS (Emergency Medical Services),Snohomish County FD #19,Stanwood,-122.26712,48.18789,2720 212th St NW
EMS (Emergency Medical Services),Snohomish County FD #19,Arlington,-122.193733,48.18844,21207 27th Ave NE
EMS (Emergency Medical Services),Snohomish County FD #21,Arlington,-122.06486,48.20226,12131 228th St NE
EMS (Emergency Medical Services),Getchell Fire,Arlington,-122.09829,48.07258,8424 99th Ave NE
EMS (Emergency Medical Services),Snohomish County FD #23,Granite Falls,-121.80203,48.09765,31907 Mountain Loop Hwy
EMS (Emergency Medical Services),Darrington Fire District #24,Arlington,-121.706551,48.269651,30020 Swede Heaven Rd
EMS (Emergency Medical Services),Darrington Fire District #24,Darrington,-121.60425,48.25497,1115 Seeman St
EMS (Emergency Medical Services),Oso Fire Department,Arlington,-121.93457,48.26906,21824 SR 530 NE
EMS (Emergency Medical Services),Snohomish County FD #26,Gold Bar,-121.69605,47.85642,501 Lewis Ave
EMS (Emergency Medical Services),Snohomish County FD #26,Gold Bar,-121.6683,47.84188,42013 SR 2
EMS (Emergency Medical Services),Snohomish County FD #26,Index,-121.55304,47.82022,512 Ave A
EMS (Emergency Medical Services),Snohomish County FD #27,Everett,-122.31717,48.01375,100 F Saratoga Dr
EMS (Emergency Medical Services),Snohomish County Fire Protection Dist. #28,Index,-121.55302,47.82027,512 Ave A
EMS (Emergency Medical Services),North County Fire / EMS,Stanwood,-122.34315,48.23931,8117 267th St NW
EMS (Emergency Medical Services),Boeing Fire Department,Everett,-122.27137,47.92021,3003 W Casino Rd
EMS (Emergency Medical Services),Arlington Fire Department,Arlington,-122.14684,48.16675,6231 188TH St NE
EMS (Emergency Medical Services),Everett Fire Department,Everett,-122.24349,47.9438,5920 Glenwood Ave
EMS (Emergency Medical Services),Everett Fire Department,Everett,-122.23844,47.91172,9520 Evergreen Way
EMS (Emergency Medical Services),Everett Fire Department,Everett,-122.21427,47.89444,11221 Silver Lake Rd
EMS (Emergency Medical Services),Everett Fire Department,Everett,-122.21247,47.93611,1400 Madison St
EMS (Emergency Medical Services),Everett Fire Department,Everett,-122.2107,47.96934,3619 Rucker Ave
EMS (Emergency Medical Services),Everett Fire Department,Everett,-122.21057,47.93598,1600 Madison St
EMS (Emergency Medical Services),Everett Fire Department,Everett,-122.20759,47.97814,2930 Wetmore Ave
EMS (Emergency Medical Services),Everett Fire Department,Everett,-122.20408,47.98006,2811 Oakes Ave
EMS (Emergency Medical Services),Everett Fire Department,Everett,-122.19929,47.99651,2201 16th St
EMS (Emergency Medical Services),Lynnwood Fire Department,Lynnwood,-122.32584,47.82876,18800 68th Ave W
EMS (Emergency Medical Services),Lynnwood Fire Department,Lynnwood,-122.29264,47.82816,18800 44th Ave W
EMS (Emergency Medical Services),Marysville Fire Department,Stanwood,-122.28946,48.15491,17500 E Lake Goodwin Rd
EMS (Emergency Medical Services),Marysville Fire Department,Marysville,-122.18381,48.13031,14716 Smokey Point Blvd
EMS (Emergency Medical Services),Marysville Fire Department,Marysville,-122.17352,48.06183,1635 Grove St
EMS (Emergency Medical Services),Marysville Fire Department,Marysville,-122.16285,48.09194,10701 Shoultes Rd
EMS (Emergency Medical Services),Marysville Fire Department,Marysville,-122.16177,48.09225,5100 108th St NE
EMS (Emergency Medical Services),Marysville Fire Department,Marysville,-122.1346,48.03269,7217 40th St NE
EMS (Emergency Medical Services),Mukilteo Fire Department,Mukilteo,-122.30266,47.94512,700 5th St
EMS (Emergency Medical Services),Mukilteo Fire Department,Mukilteo,-122.29702,47.90431,10400 47th Pl W
EMS (Emergency Medical Services),Naval Station Everett,Everett,-122.21387,47.99284,2000 W Marine View Dr
EMS (Emergency Medical Services),Northwest Ambulance,Everett,-122.2119,47.97764,1316 Wall St
EMS (Emergency Medical Services),Northwest Ambulance,Marysville,-122.18004,48.05485,706 Cedar Ave
EMS (Emergency Medical Services),Northwest Ambulance,Mountlake Terrace,-122.32002,47.79884,22002 64th Ave W
EMS (Emergency Medical Services),Northwest Ambulance,Bothell,-122.19643,47.76233,10736 Beardslee Blvd
EMS (Emergency Medical Services),Northwest Ambulance,Everett,-122.22894,47.88039,203 130th St SE
EMS (Emergency Medical Services),Northwest Ambulance,Everett,-122.22835,47.91979,8620 Holly Dr
EMS (Emergency Medical Services),Northwest Ambulance,Mount Vernon,-122.33591,48.40334,2313 Old Highway 99 S Rd
EMS (Emergency Medical Services),Falck Northwest,Mountlake Terrace,-122.31969,47.80156,6405 218th St SW
EMS (Emergency Medical Services),Spokane Valley Fire Department,Spokane,-117.31942,47.65691,6306 E Sprague Ave
EMS (Emergency Medical Services),Spokane Valley Fire Department,Spokane,-117.27965,47.68545,9111 E Fredrick Ave
EMS (Emergency Medical Services),Spokane Valley Fire Department,Spokane,-117.26575,47.65758,10319 E Sprague Ave
EMS (Emergency Medical Services),Spokane Valley Fire Department,Spokane,-117.24914,47.68218,11510 E Marietta Ave
EMS (Emergency Medical Services),Spokane Valley Fire Department,Spokane,-117.24784,47.67732,2110 N Wilbur Rd
EMS (Emergency Medical Services),Spokane Valley Fire Department,Spokane,-117.24167,47.62825,12121 E 32nd Ave
EMS (Emergency Medical Services),Spokane Valley Fire Department,Veradale,-117.21768,47.64631,1121 S Evergreen
EMS (Emergency Medical Services),Spokane Valley Fire Department,Spokane,-117.17241,47.65751,17217 E Sprague Ave
EMS (Emergency Medical Services),Spokane Valley Fire Department,Spokane,-117.11066,47.67743,2218 N Harvard Rd
EMS (Emergency Medical Services),Spokane Valley Fire Department,Otis Orchards,-117.10486,47.70018,22406 E Wellesley Ave
EMS (Emergency Medical Services),Fairfield Ambulance,Fairfiled,-117.16265,47.38098,17815 E Truax Rd
EMS (Emergency Medical Services),Spokane County FD #3,Cheney,-117.77956,47.43612,26801 W SR 904
EMS (Emergency Medical Services),Spokane County FD #3,Cheney,-117.72486,47.52698,13906 S Medical Lake-Tyler Rd
EMS (Emergency Medical Services),Spokane County FD #3,Cheney,-117.696481,47.33301,20606 W Williams Lake Rd
EMS (Emergency Medical Services),Spokane County FD #3,Cheney,-117.59756,47.47733,10 S Presley Dr
EMS (Emergency Medical Services),Spokane County FD #3,Cheney,-117.58978,47.56768,12611 W Melville Rd
EMS (Emergency Medical Services),Spokane County FD #3,Spokane,-117.49728,47.58394,7619 S Grove Rd
EMS (Emergency Medical Services),Spokane County FD #3,Cheney,-117.47739,47.48449,19012 S Short Rd
EMS (Emergency Medical Services),Spokane County FD #3,Spokane,-117.43877,47.550921,1801 W Gibbs Rd
EMS (Emergency Medical Services),Spokane County FD #3,Spangle,-117.3814,47.42897,235 W 2nd
EMS (Emergency Medical Services),Spokane County FD #4,Deer Park,-117.47223,47.95345,315 E. A Street
EMS (Emergency Medical Services),Spokane County FD #4,Deer Park,-117.45466,47.8744,2929 W. Wildrose Road
EMS (Emergency Medical Services),Spokane County FD #4,Colbert,-117.41526,47.83209,302 W. Monroe Road
EMS (Emergency Medical Services),Spokane County FD #4,Chattaroy,-117.36391,47.8904,3219 E Chattaroy Rd
EMS (Emergency Medical Services),Spokane County FD #4,Chattaroy,-117.35722,47.9705,3818 E. Deer Park Milan Road
EMS (Emergency Medical Services),Spokane County FD #4,Mead,-117.34866,47.8141,17207 N. Newport Hwy
EMS (Emergency Medical Services),Spokane County FD #4,Chattaroy,-117.2768,47.90831,27515 N. Elk-Chattaroy Road
EMS (Emergency Medical Services),Spokane County FD #4,Elk,-117.2766,48.01955,40116 N. Elk Camden Road
EMS (Emergency Medical Services),Spokane County FD #4,Colbert,-117.27648,47.82766,9815 E. Greenbluff Road
EMS (Emergency Medical Services),Spokane County FD #4,Mead,-117.21352,47.81834,17711 N. Mt. Spokane Park Drive
EMS (Emergency Medical Services),Spokane County FD #5,Nine Mile Falls,-117.69039,47.80306,20302 W Charles Rd
EMS (Emergency Medical Services),Spokane County FD #5,Nine Mile Falls,-117.64794,47.78027,17217 W Four Mound Rd
EMS (Emergency Medical Services),Spokane County FD #8,Spokane,-117.35096,47.59776,6117 S Palouse Hwy
EMS (Emergency Medical Services),Spokane County FD #8,Spokane,-117.24966,47.61301,4410 S Bates Rd
EMS (Emergency Medical Services),Spokane County FD #8,Valleyford,-117.24222,47.53354,12100 E Palouse Hwy
EMS (Emergency Medical Services),Spokane County FD #8,Greenacres,-117.16072,47.6257,3324 S Linke Rd
EMS (Emergency Medical Services),Spokane County FD #9,Nine Mile Falls,-117.62153,47.80375,15222 N Charles Rd
EMS (Emergency Medical Services),Spokane County FD #9,Nine Mile Falls,-117.55075,47.77857,9915 W Charles Rd
EMS (Emergency Medical Services),Spokane County FD #9,Spokane,-117.45516,47.73738,3028 W Strong Rd
EMS (Emergency Medical Services),Spokane County FD #9,Spokane,-117.42082,47.76934,616 W Hastings Rd
EMS (Emergency Medical Services),Spokane County FD #9,Spokane,-117.4169,47.73964,9105 N Whitehouse Rd
EMS (Emergency Medical Services),Spokane County FD #9,Spokane,-117.36712,47.71781,6606 N Regal St
EMS (Emergency Medical Services),Spokane County FD #9,Mead,-117.35502,47.77375,3801 E Farwell Rd
EMS (Emergency Medical Services),Spokane County FD #9,Spokane,-117.29436,47.72153,7017 N Jensen Rd
EMS (Emergency Medical Services),Spokane County FD #9,Spokane,-117.20251,47.75882,11019 N Forker Rd
EMS (Emergency Medical Services),Spokane County FD #10,Medical Lake,-117.68965,47.64265,1411 S Brooks Rd
EMS (Emergency Medical Services),Spokane County FD #10,Spokane,-117.64597,47.7149,6316 N Dover Rd
EMS (Emergency Medical Services),Spokane County FD #10,Airway Heights,-117.57645,47.64697,929 S Garfield Rd
EMS (Emergency Medical Services),Spokane County FD #10,Spokane,-117.55015,47.67168,9921 W Trails Rd
EMS (Emergency Medical Services),Spokane County FD #10,Spokane,-117.48901,47.63228,5408 W Lawton Rd
EMS (Emergency Medical Services),Spokane County FD #11,Rockford,-117.13362,47.45262,116 E Emma St
EMS (Emergency Medical Services),Spokane County FD #12,Waverly,-117.2276,47.34317,255 N Commercial
EMS (Emergency Medical Services),Spokane County FD #12,Latah,-117.15522,47.2794,108 E Market
EMS (Emergency Medical Services),Newman Lake Fire and Rescue,Newman Lake,-117.12031,47.80473,16108 N West Newman Lake Dr
EMS (Emergency Medical Services),Newman Lake Fire and Rescue,Newman Lake,-117.06869,47.74232,9324 N Starr Rd
EMS (Emergency Medical Services),Airway Heights Fire Department,Airway Heights,-117.59354,47.64443,1208 S Lundstrom St
EMS (Emergency Medical Services),Cheney Fire Department,Cheney,-117.57656,47.48966,611 Fourth St
EMS (Emergency Medical Services),City of Medical Lake,Medical Lake,-117.68287,47.57257,124 S Lefeure St
EMS (Emergency Medical Services),City of Spokane,Spokane,-117.51817,47.64032,1615 S Spotted Rd
EMS (Emergency Medical Services),City of Spokane,Spokane,-117.48459,47.73684,5121 W Lowell Rd
EMS (Emergency Medical Services),City of Spokane,Spokane,-117.47605,47.70729,5225 N Assembly St
EMS (Emergency Medical Services),City of Spokane,Spokane,-117.43764,47.67474,1713 W Indiana Ave
EMS (Emergency Medical Services),City of Spokane,Spokane,-117.43327,47.65637,1515 W First Ave
EMS (Emergency Medical Services),City of Spokane,Spokane,-117.42812,47.701,1118 W Wellesley Ave
EMS (Emergency Medical Services),City of Spokane,Spokane,-117.4173,47.63922,1722 S Bernard St
EMS (Emergency Medical Services),City of Spokane,Spokane,-117.41269,47.65832,44 W Riverside
EMS (Emergency Medical Services),City of Spokane,Spokane,-117.40799,47.72905,120 E Lincoln Rd
EMS (Emergency Medical Services),City of Spokane,Spokane,-117.39473,47.68377,1001 E North Foothills Dr
EMS (Emergency Medical Services),City of Spokane,Spokane,-117.39043,47.62512,3214 S Perry St
EMS (Emergency Medical Services),City of Spokane,Spokane,-117.38234,47.6565,1901 E First Ave
EMS (Emergency Medical Services),City of Spokane,Spokane,-117.37795,47.70031,2120 E Wellesley Ave
EMS (Emergency Medical Services),City of Spokane,Spokane,-117.36264,47.63884,1807 S Ray St
EMS (Emergency Medical Services),City of Spokane,Spokane,-117.35429,47.67284,1608 N Rebecca St
EMS (Emergency Medical Services),Spokane International Airport FD,Spokane,-117.53717,47.62533,9000 W Airport Dr
EMS (Emergency Medical Services),American Medical Response,Spokane,-117.42611,47.6689,915 W Sharp Ave
EMS (Emergency Medical Services),Deer Park Ambulance,Deer Park,-117.47442,47.95506,19 N Armin
EMS (Emergency Medical Services),Stevens County FD #1,Ford,-117.80463,47.90912,5227 Main St
EMS (Emergency Medical Services),Stevens County FD #1,Springdale,-117.74257,48.054955,West 52 Aspen
EMS (Emergency Medical Services),Stevens County FD #1,Nine Mile Falls,-117.64114,47.85962,6444 Hwy 291
EMS (Emergency Medical Services),Stevens County FD #1,Loon Lake,-117.63346,48.0628,4009 N Cedar
EMS (Emergency Medical Services),Stevens County FD #1,Loon Lake,-117.6333429,48.062601,4222 SW Shores
EMS (Emergency Medical Services),Stevens County FD #1,Nine Mile Falls,-117.5782,47.81522,5990 Hwy 291
EMS (Emergency Medical Services),Stevens County FD #1,Deer Park,-117.56269,47.89848,5128 Swenson
EMS (Emergency Medical Services),Stevens County FD #1,Clayton,-117.55235,47.99454,4532 Railroad Ave
EMS (Emergency Medical Services),Stevens County FD #4,Valley,-117.79113,48.19617,3551 Thompson Rd
EMS (Emergency Medical Services),Stevens County FD #4,Valley,-117.72224,48.15632,3282 Bulldog Creek
EMS (Emergency Medical Services),Stevens County FD #4,Chewelah,-117.71239,48.27742,409 E Clay Ave
EMS (Emergency Medical Services),Stevens County FD #4,Chewelah,-117.69879,48.33518,2720 Moser Rd
EMS (Emergency Medical Services),Stevens County FD #4,Valley,-117.75747,48.18464,3099 Farm to Market Rd
EMS (Emergency Medical Services),Stevens County FD #4,Chewelah,-117.72954,48.30658,2358 Highline Rd
EMS (Emergency Medical Services),Stevens County FD #5,Colville,-117.94663,48.47493,682 Orin Rice Rd
EMS (Emergency Medical Services),Stevens County FD #5,Addy,-117.83696,48.35802,1386 Hall St
EMS (Emergency Medical Services),Stevens County FD #7,Colville,-117.88212,48.46074,649 Elm Tree Dr
EMS (Emergency Medical Services),Stevens County FD #7,Colville,-117.87236,48.45998,658 Hall Rd
EMS (Emergency Medical Services),Joint Fire Protection District #3 & #8,Orient,-118.204649,48.866551,3585 Sand Creek Rd
EMS (Emergency Medical Services),Joint Fire Protection District #3 & #8,Orient,-118.20458,48.86659,340 Main St
EMS (Emergency Medical Services),Joint Fire Protection District #3 & #8,Kettle Falls,-118.15327,48.58154,41 Apple Tree Dr
EMS (Emergency Medical Services),Joint Fire Protection District #3 & #8,Kettle Falls,-118.14163,48.77036,25266 Hwy 395 N
EMS (Emergency Medical Services),Stevens County FD #12,Rice,-118.16235,48.42908,1985 Orin-Rice Rd
EMS (Emergency Medical Services),Stevens County FD #12,Gifford,-118.13718,48.31049,3341 Addy-Gifford Rd
EMS (Emergency Medical Services),Northport Fire Department 1st Response,Northport,-117.78098,48.91727,315 Summit Ave
EMS (Emergency Medical Services),Stevens County Sheriff's Ambulance,Colville,-117.91115,48.54896,425 N Highway
EMS (Emergency Medical Services),Chewalah Rural Ambulance,Chewelah,-117.71874,48.27599,215 W Main
EMS (Emergency Medical Services),Spokane Tribal Emergency Response,Wellpinit,-117.9898,47.88758,6203 Ford Wellpinit Rd
EMS (Emergency Medical Services),West Thurston Fire,Rochester,-123.10128,46.77852,10344 Langworthy St SW
EMS (Emergency Medical Services),West Thurston Fire,Rochester,-123.09631,46.82021,18346 Albany St SW
EMS (Emergency Medical Services),West Thurston Fire,Rochester,-123.03247,46.81611,18720 Sargent Rd SW
EMS (Emergency Medical Services),West Thurston Fire,Olympia,-122.99069,46.93032,10828 Littlerock Rd SW
EMS (Emergency Medical Services),West Thurston Fire,Olympia,-122.94974,46.89582,3131 Maytown Rd SW
EMS (Emergency Medical Services),West Thurston Fire,Olympia,-122.93924,46.92005,2640 Trevue Ave SW
EMS (Emergency Medical Services),SE Thurston Fire Authority,Yelm,-122.61258,46.93629,709 Mill Rd SE
EMS (Emergency Medical Services),Lacey FD #3,Lacey,-122.8159,47.0364,1231 Franz St SE
EMS (Emergency Medical Services),Lacey FD #3,Olympia,-122.79536,47.00582,6500 Mullen Rd SE
EMS (Emergency Medical Services),Lacey FD #3,Olympia,-122.76063,47.04652,8407 Steilacoom Rd SE
EMS (Emergency Medical Services),Lacey FD #3,Olympia,-122.756431,47.087358,3701 Willamette Dr NE
EMS (Emergency Medical Services),Lacey FD #3,Yelm,-122.708723,46.991988,10916 Yelm Hwy SE
EMS (Emergency Medical Services),Lacey FD #3,Yelm,-122.61258,46.93629,709 Mill Rd SE
EMS (Emergency Medical Services),McLane Black Lake Fire Department,Olympia,-123.1368,47.05045,2815 Summit Lake Shore Rd NW
EMS (Emergency Medical Services),McLane Black Lake Fire Department,Olympia,-122.98625,46.9943,5911 Black Lake Blvd SW
EMS (Emergency Medical Services),McLane Black Lake Fire Department,Olympia,-122.96445,47.00652,4402 Black Lake Belmore Rd SW
EMS (Emergency Medical Services),Thurston County FD #6,Tenino,-122.858192,46.949459,9530 Old Hwy 99 SE
EMS (Emergency Medical Services),Thurston County FD #6,Olympia,-122.83726,46.96923,8047 Normandy St SE
EMS (Emergency Medical Services),Thurston County FD #6,Tenino,-122.81273,46.91745,5944 Offut Lake Rd SE
EMS (Emergency Medical Services),Thurston County FD #6,Olympia,-122.76764,46.97182,8208 80th Ave SE
EMS (Emergency Medical Services),Thurston County FD #8,Olympia,-122.8461,47.08345,3606 Shincke Rd NE
EMS (Emergency Medical Services),Thurston County FD #12,Tenino,-122.91769,46.83747,17134 Old Hwy 99 SE
EMS (Emergency Medical Services),Thurston County FD #12,Centrailia,-122.91657,46.77904,21249 Bucoda Hwy SE
EMS (Emergency Medical Services),Thurston County FD #12,Tenino,-122.8515,46.85708,187 Hodgden St South
EMS (Emergency Medical Services),Thurston County FD #13,Olympia,-123.0166,47.08505,3707 Steamboat Loop NW
EMS (Emergency Medical Services),Thurston County FD #13,Olympia,-122.9461,47.14976,8113 Steamboat Island Rd NW
EMS (Emergency Medical Services),Thurston County FD #17,Yelm,-122.54569,46.83419,17701 Lawerence Lake Rd SE
EMS (Emergency Medical Services),Thurston County FD #17,Yelm,-122.48761,46.85054,16306 Bald Hill Rd SE
EMS (Emergency Medical Services),City of Olympia Fire Department,Olympia,-122.9329,47.04842,330 Kenyon St NW
EMS (Emergency Medical Services),City of Olympia Fire Department,Olympia,-122.88787,47.04625,100 Eastside St NE
EMS (Emergency Medical Services),City of Olympia Fire Department,Olympia,-122.84569,47.04526,3525 Stoll Rd SE
EMS (Emergency Medical Services),City of Olympia Fire Department,Olympia,-122.86574,47.02861,2525 22nd ave SE
EMS (Emergency Medical Services),City of Tumwater Fire Department,Rochester,-123.03247,46.81611,18720 Sargent Rd SW
EMS (Emergency Medical Services),City of Tumwater Fire Department,Tumwater,-122.90929,46.98503,311 Israel Rd SW
EMS (Emergency Medical Services),American Medical Response,Olympia,-122.88701,47.03793,1210 Eastside St SE
EMS (Emergency Medical Services),Olympic Ambulance,Lacey,-122.81813,47.03678,1205 Ruddell Rd SE
EMS (Emergency Medical Services),Wahkiakum County FD #3,Rosburg,-123.67864,46.32349,4631 SR 4 West
EMS (Emergency Medical Services),Wahkiakum County FD #3,Grays River,-123.61258,46.35394,8 Hall Creek Rd
EMS (Emergency Medical Services),Cathlamet Fire Department,Cathlamet,-123.38611,46.20465,375 2nd St
EMS (Emergency Medical Services),Walla Walla County FD #1,Prescott,-118.48634,46.29036,32 Lyons Ferry Rd
EMS (Emergency Medical Services),Walla Walla County FD #1,Prescott,-118.33742,46.49237,173 Pleasant View Rd
EMS (Emergency Medical Services),Walla Walla County FD #3,Prescott,-118.72158,46.31407,1131 Fishhook Park Rd
EMS (Emergency Medical Services),Walla Walla County FD #4,Walla Walla,-118.32509,46.04389,2251 S Howard St
EMS (Emergency Medical Services),Walla Walla County FD #5,Burbank,-119.00485,46.19758,460 W Humorist Rd
EMS (Emergency Medical Services),Walla Walla County FD #5,Burbank,-118.99171,46.21137,988 Lake Rd
EMS (Emergency Medical Services),Walla Walla County FD #6,Touchet,-118.66982,46.03499,795 McKay Rd
EMS (Emergency Medical Services),Walla Walla County FD #7,Prescott,-118.3145,46.29896,108 South D St
EMS (Emergency Medical Services),College Place Fire Department,College Place,-118.38814,46.04263,625 S College Ave
EMS (Emergency Medical Services),City of Walla Walla Fire Department,Walla Walla,-118.35123,46.05915,200 S 12th Ave
EMS (Emergency Medical Services),City of Walla Walla Fire Department,Walla Walla,-118.30339,46.07423,170 N Wilbur Ave
EMS (Emergency Medical Services),Waitsburg Ambulance,Waitsburg,-118.14396,46.27047,765 Preston Ave
EMS (Emergency Medical Services),Whatcom County FD #1,Everson,-122.34276,48.91991,101 E Main St
EMS (Emergency Medical Services),Whatcom County FD #1,Everson,-122.28721,48.84597,5664 Lawrence Rd
EMS (Emergency Medical Services),Whatcom County FD #5,Point Roberts,-123.04406,48.98872,2030 Benson Rd
EMS (Emergency Medical Services),Whatcom County FD #7,Ferndale,-122.7012,48.88441,4047 Brown Rd
EMS (Emergency Medical Services),Whatcom County FD #7,Ferndale,-122.61692,48.86211,6081 Church Rd
EMS (Emergency Medical Services),Whatcom County FD #7,Ferndale,-122.5826,48.89193,1886 Grandview Rd
EMS (Emergency Medical Services),Whatcom County FD #7,Bellingham,-122.53996,48.83581,5368 Northwest Dr
EMS (Emergency Medical Services),Whatcom County FD #8,Bellingham,-122.52137,48.7695,752 Marine Dr
EMS (Emergency Medical Services),Whatcom County FD #11,Lummi Island,-122.68869,48.71396,3809 Legoe Bay Rd
EMS (Emergency Medical Services),Whatcom County FD #14,Sumas,-122.26405,48.9962,143 Columbia St
EMS (Emergency Medical Services),Whatcom County FD #14,Deming,-122.15559,48.8374,5640 Mosquito Lake Rd
EMS (Emergency Medical Services),Whatcom County FD #14,Maple Falls,-122.13938,48.91747,7528 Kendall Rd
EMS (Emergency Medical Services),Whatcom County FD #16,Deming,-122.20266,48.71623,2036 Valley Hwy
EMS (Emergency Medical Services),Whatcom County FD #17,Ferndale,-122.70945,48.79903,4332 Sucia Dr
EMS (Emergency Medical Services),Whatcom County FD #17,Ferndale,-122.68749,48.80487,3685 Prevost Way
EMS (Emergency Medical Services),Whatcom County FD #18,Sedro Woolley,-122.340517,48.617826,3250 Cain Lake Rd
EMS (Emergency Medical Services),Whatcom County FD #18,Sedro Woolley,-122.32506,48.6571,431 Cain Lake Rd
EMS (Emergency Medical Services),Glacier Fire and Rescue,Deming,-121.9469,48.88927,9953 Mt Baker Hwy
EMS (Emergency Medical Services),South Whatcom Fire Authority,Bellingham,-122.48435,48.66602,686 Chuckanut Dr
EMS (Emergency Medical Services),South Whatcom Fire Authority,Bellingham,-122.40757,48.69223,5070 Samish Way
EMS (Emergency Medical Services),South Whatcom Fire Authority,Bellingham,-122.40276,48.74589,4518 Cable St
EMS (Emergency Medical Services),South Whatcom Fire Authority,Bellingham,-122.33211,48.71589,2050 Lake Whatcom Blvd
EMS (Emergency Medical Services),North Whatcom Fire and Rescue,Blaine,-122.79195,48.96947,9001 Semiahmoo Pkwy
EMS (Emergency Medical Services),North Whatcom Fire and Rescue,Blaine,-122.73061,48.9352,4581 Birch Bay Lynden Rd
EMS (Emergency Medical Services),North Whatcom Fire and Rescue,Blaine,-122.72529,48.98318,9408 Odell Rd
EMS (Emergency Medical Services),North Whatcom Fire and Rescue,Blaine,-122.66586,48.97099,3401 Haynie Rd
EMS (Emergency Medical Services),North Whatcom Fire and Rescue,Ferndale,-122.57411,48.93719,8188 N Enterprise Rd
EMS (Emergency Medical Services),North Whatcom Fire and Rescue,Bellingham,-122.48436,48.85974,6028 Guide Meridian Rd
EMS (Emergency Medical Services),North Whatcom Fire and Rescue,Lynden,-122.457,48.90955,633 E Wiser Lake Rd
EMS (Emergency Medical Services),North Whatcom Fire and Rescue,Bellingham,-122.41416,48.79039,4142 Britton Loop Rd
EMS (Emergency Medical Services),North Whatcom Fire and Rescue,Lynden,-122.4067,48.96341,1507 E Badger Rd
EMS (Emergency Medical Services),North Whatcom Fire and Rescue,Bellingham,-122.36523,48.8344,2308 E Smith Rd
EMS (Emergency Medical Services),North Whatcom Fire and Rescue,Bellingham,-122.35417,48.75538,3131 Y Road
EMS (Emergency Medical Services),Whatcom Medic One,Ferndale,-122.5826,48.89193,1886 Grandview Rd
EMS (Emergency Medical Services),Whatcom Medic One,Bellingham,-122.49759,48.71974,1590 Harris Ave
EMS (Emergency Medical Services),Whatcom Medic One,Bellingham,-122.49732,48.77671,3314 NW Ave
EMS (Emergency Medical Services),Whatcom Medic One,Bellingham,-122.48743,48.75994,1800 Broadway st
EMS (Emergency Medical Services),Whatcom Medic One,Bellingham,-122.47778,48.78804,4060 Deemer Rd
EMS (Emergency Medical Services),Whatcom Medic One,Bellingham,-122.475786,48.744005,1111 Billy Frank Jr St
EMS (Emergency Medical Services),Whatcom Medic One,Bellingham,-122.44546,48.83381,858 E Smith Rd
EMS (Emergency Medical Services),Whatcom Medic One,Bellingham,-122.44184,48.76079,2306 Yew St
EMS (Emergency Medical Services),Lynden Fire Department,Lynden,-122.45332,48.94478,215 4th St
EMS (Emergency Medical Services),Newhalem - Diablo Fire Brigade,Rockport,-121.24715,48.67329,500 Newhalem St
EMS (Emergency Medical Services),Cascade Ambulance,Ferndale,-122.56376,48.81855,1482 Slater Rd
EMS (Emergency Medical Services),Saint John FD #2,St John,-117.58081,47.09172,30 E Front St
EMS (Emergency Medical Services),Palouse EMS,Palouse,-117.07964,46.910911,335 W Echanove Ave
EMS (Emergency Medical Services),Whitman County FD #5,Lamont,-117.90645,47.20108,302 8th St
EMS (Emergency Medical Services),Whitman County FD #6,Endicott,-117.68475,46.92765,326 E Street
EMS (Emergency Medical Services),Whitman County FD #7,Rosalia,-117.37026,47.23453,607 S Whitman Ave
EMS (Emergency Medical Services),Steptoe Fire Department,Steptoe,-117.35601,47.006,23 SR 23
EMS (Emergency Medical Services),Whitman County FD #12,Pullman,-117.19155,46.73084,912 W Main St
EMS (Emergency Medical Services),Whitman County FD #12,Colton,-117.11734,46.5823,71 Becker Rd
EMS (Emergency Medical Services),Whitman County FD #12,Pullman,-117.11111,46.7785,252 Whelan Rd
EMS (Emergency Medical Services),Whitman County FD #14,Colton,-117.12688,46.5702,803 Depot St
EMS (Emergency Medical Services),Whitman County FD #14,Uniontown,-117.08724,46.53913,105 S Montgomery St
EMS (Emergency Medical Services),Whitman County FD #8,Lacrosse,-117.87949,46.81567,107 S. Main St
EMS (Emergency Medical Services),Malden Fire and EMS,Malden,-117.4732,47.22889,14 W Moraland
EMS (Emergency Medical Services),Whitman County FD #10,Oakesdale,-117.2428,47.12779,108 S First St
EMS (Emergency Medical Services),Pullman Fire Department,Pullman,-117.18562,46.72513,620 S Grand Ave
EMS (Emergency Medical Services),Pullman Fire Department,Pullman,-117.17281,46.75034,55 NW Terre View Dr
EMS (Emergency Medical Services),Colfax Fire Department,Colfax,-117.36332,46.88385,400 N Mill St
EMS (Emergency Medical Services),Pullman-Moscow Regional Airport FD,Pullman,-117.11556,46.74483,3200 Airport Complex N
EMS (Emergency Medical Services),Garfield-Farmington EMS,Garfield,-117.14128,47.00797,308 W California St
EMS (Emergency Medical Services),Garfield-Farmington EMS,Farmington,-117.04952,47.08927,300 W Washington St
EMS (Emergency Medical Services),Tekoa Community Ambulance,Tekoa,-117.07374,47.226965,116 E Main St
EMS (Emergency Medical Services),Volunterr Firemen Inc,Colfax,-117.36332,46.88385,North 400 Mill St
EMS (Emergency Medical Services),Volunterr Firemen Inc,Colfax,-117.36073,46.87476,201 F St
EMS (Emergency Medical Services),Yakima County FD #1,Tieton,-120.75226,46.70178,19911 Summitview Rd
EMS (Emergency Medical Services),Yakima County FD #1,Cowiche,-120.71117,46.67118,31 Cowiche City Rd
EMS (Emergency Medical Services),Selah Fire Department,Selah,-120.52061,46.71247,4251 N Wenas Rd
EMS (Emergency Medical Services),Selah Fire Department,Yakima,-120.48574,46.68039,1830 Harrison Rd
EMS (Emergency Medical Services),Naches Fire Department,Naches,-120.70136,46.73062,102 Naches Ave
EMS (Emergency Medical Services),Yakima County FD #4,Yakima,-120.44661,46.60745,4007 Commonwealth Rd
EMS (Emergency Medical Services),Yakima County FD #4,Yakima,-120.40243,46.57218,2003 Beaudry Rd
EMS (Emergency Medical Services),Yakima County FD #4,Moxee,-120.38571,46.55584,104 S Rivard Rd
EMS (Emergency Medical Services),Yakima County FD #5,White Swan,-120.73026,46.38396,210 Curtis St
EMS (Emergency Medical Services),Yakima County FD #5,Harrah,-120.54371,46.40332,4111 Harrah Rd
EMS (Emergency Medical Services),Yakima County FD #5,Wapato,-120.42878,46.44657,205 S Frontage Rd
EMS (Emergency Medical Services),Yakima County FD #5,Wapato,-120.3485,46.45027,6801 Yakima Valley Hwy
EMS (Emergency Medical Services),Yakima County FD #5,Granger,-120.19392,46.33768,499 Main St
EMS (Emergency Medical Services),Yakima County FD #5,Mabton,-119.99898,46.21322,315 N St
EMS (Emergency Medical Services),Yakima County FD #6,Yakima,-120.61432,46.65711,81 N Gleed Rd
EMS (Emergency Medical Services),Yakima County FD #6,Yakima,-120.59448,46.64338,320 Old Naches Hwy
EMS (Emergency Medical Services),Naches Heights Fire Department,Yakima,-120.65118,46.65041,5000 Naches Heights Rd
EMS (Emergency Medical Services),West Valley Fire Department,Yakima,-120.86685,46.53567,11 North Fork
EMS (Emergency Medical Services),West Valley Fire Department,Yakima,-120.70858,46.59344,14901 Tieton Dr
EMS (Emergency Medical Services),West Valley Fire Department,Yakima,-120.64271,46.57381,10000 Zier Rd
EMS (Emergency Medical Services),West Valley Fire Department,Yakima,-120.62978,46.55789,9102 Ahtanum Rd
EMS (Emergency Medical Services),Nile-Cliffdell Fire Department,Naches,-120.91676,46.80709,8520 SR 410
EMS (Emergency Medical Services),Nile-Cliffdell Fire Department,Naches,-120.96756,46.87001,13670 State Route 410
EMS (Emergency Medical Services),Grandview Fire Department,Grandview,-119.90385,46.2554,110 Ave A
EMS (Emergency Medical Services),City of Granger Fire Department,Granger,-120.19392,46.33768,499 Main St
EMS (Emergency Medical Services),Mabton Fire Department,Mabton,-119.99898,46.21322,315 North St
EMS (Emergency Medical Services),City of Sunnyside Fire Department,Sunnyside,-120.01043,46.32327,513 S 8th St
EMS (Emergency Medical Services),Toppenish Fire Department,Toppenish,-120.3168,46.37362,514 W 2nd Ave
EMS (Emergency Medical Services),Wapato Fire Department,Wapato,-120.42878,46.44657,205 S Frontage Rd
EMS (Emergency Medical Services),Yakima Fire Department,Yakima,-120.61168,46.59335,7707 Tieton dr
EMS (Emergency Medical Services),Yakima Fire Department,Yakima,-120.56103,46.60658,511 N 40th Ave
EMS (Emergency Medical Services),Yakima Fire Department,Yakima,-120.54129,46.57125,2404 W Washington Ave
EMS (Emergency Medical Services),Yakima Fire Department,Yakima,-120.50972,46.60728,401 N Front St
EMS (Emergency Medical Services),Yakima Fire Department,Yakima,-120.49011,46.58565,807 E Nob Hill Blvd
EMS (Emergency Medical Services),Zillah City Fire,Zillah,-120.25892,46.40115,717 1st Ave
EMS (Emergency Medical Services),White Swan Ambulance,White Swan,-120.734624,46.379643,80 Bird Song Lane
EMS (Emergency Medical Services),American Medical Response,Yakima,-120.509,46.5972,229 S 2nd Ave
EMS (Emergency Medical Services),American Medical Response,Union Gap,-120.47499,46.54749,4001 Main St
EMS (Emergency Medical Services),American Medical Response,Toppenish,-120.31743,46.37163,513 4th Ave
EMS (Emergency Medical Services),Advance Life Systems,Yakima,-120.53788,46.56922,2106 W Washington Ave
EMS (Emergency Medical Services),Lewiston Fire Department,Clarkston,-117.08293,46.39561,2314 Appleside Blvd
EMS (Emergency Medical Services),Lewiston Fire Department,Lewiston,-117.01588,46.41691,300 13th Street
EMS (Emergency Medical Services),Lewiston Fire Department,Lewiston,-117.00876,46.37687,434 Burrell Ave
EMS (Emergency Medical Services),Lewiston Fire Department,Lewiston,-116.95003,46.37342,1533 Grelle Ave
Non-Opioid User Disorder Facility,CIHS - 14th Ave Longview,Longview,-122.9367655,46.1342834,1116 14th Ave
Non-Opioid User Disorder Facility,CIHS - 618 W Market St Aberdeen,Aberdeen,-123.8250445,46.9719608,618 W Market St
Non-Opioid User Disorder Facility,CIHS - Cooks Hill Rd Centralia,Centralia,-122.982769,46.7137922,1707 Cooks Hill Rd
Non-Opioid User Disorder Facility,CIHS -1720 S Gold St,Centralia,-122.957293,46.69799,1720 S Gold St
Non-Opioid User Disorder Facility,Merit Resource Services - Ellensburg,Ellensburg,-120.545647,46.994409,200 E 3rd Ave
Non-Opioid User Disorder Facility,Merit Resource Services - Kennwick,Kennewick,-119.2236527,46.2115553,7510 W Deschutes Pl
Non-Opioid User Disorder Facility,Merit Resource Services - Sunnyside,Sunnyside,-120.0098667,46.322553,702 Franklin Ave
Non-Opioid User Disorder Facility,Merit Resource Services - Toppenish,Toppenish,-120.312934,46.3751668,321 W 1st Ave
Non-Opioid User Disorder Facility,Merit Resource Services - Wapato,Wapato,-120.4227683,46.4470163,312 W 2nd S
Non-Opioid User Disorder Facility,Merit Resource Services - Yakima,Yakima,-120.5064393,46.6066328,315 N 2nd St
Non-Opioid User Disorder Facility,New Horizon Care Centers,Spokane,-117.400391,47.65366,701 E 3rd Ave
Non-Opioid User Disorder Facility,Sundown M Ranch - Outpatient Treatment Program,Yakima,-120.4705134,46.7057871,2280 WA-821
Non-Opioid User Disorder Facility,Triumph Treatment Services - Community Drug and Alcohol Center,Yakima,-120.5024322,46.6012995,120 S 3rd St
OTP (Opioid Treatment Programs) Facility,"WCHS, Inc.",Aberdeen,-123.8148168,46.9784883,516 East 1st St.
OTP (Opioid Treatment Programs) Facility,Quinault Wellness Center,Aberdeen,-123.8219229,46.9708563,511 W Heron St
OTP (Opioid Treatment Programs) Facility,Camas Health Recovery Center,Airway Heights,-117.5632328,47.6499903,10811 W 6th Ave
OTP (Opioid Treatment Programs) Facility,DIDGWALIC WELLNESS CENTER,Anacortes,-122.5663638,48.4625708,8212 S. March Point Road
OTP (Opioid Treatment Programs) Facility,Island Crossing Counseling Services,Arlington,-122.154087,48.151995,5700 172nd ST NE
OTP (Opioid Treatment Programs) Facility,We Care Daily Clinics,AUBURN,-122.221078,47.3365571,3320 AUBURN WAY NORTH
OTP (Opioid Treatment Programs) Facility,Therapeutic Health Services Eastside,Bellevue,-122.1513622,47.623637,1412 140th Place NE
OTP (Opioid Treatment Programs) Facility,Lummi OTP,Bellingham,-122.48822,48.75955,2616 Kwina Road
OTP (Opioid Treatment Programs) Facility,"WCHS, Inc.",Bellingham,-122.4969653,48.7755044,3240 Northwest Ave
OTP (Opioid Treatment Programs) Facility,"BAART Behavioral Health Services, Inc.",Bremerton,-122.6319016,47.6075291,"1520 NE Riddell Road, Suite 110"
OTP (Opioid Treatment Programs) Facility,Therapeutic Health Services - Everett Branch,Everett,-122.240813,47.908023,9930 Evergreen Way Z150
OTP (Opioid Treatment Programs) Facility,"WCHS, Inc.",Kelso,-122.9120587,46.1431642,"305 Pacific Avenue S, Suite C"
OTP (Opioid Treatment Programs) Facility,"WCHS, Inc.",Kent,-122.2284852,47.4051178,"21851 84th Ave S, #101"
OTP (Opioid Treatment Programs) Facility,Northwest Integrated Health,Lakewood,-122.483777,47.1690429,9720 South Tacoma Way
OTP (Opioid Treatment Programs) Facility,"WCHS, Inc.",Lakewood,-122.472585,47.170933,"9500 Front Street, Suite 100"
OTP (Opioid Treatment Programs) Facility,"WCHS, Inc.",Lynwood,-122.319677,47.825285,2322 196th Street SW
OTP (Opioid Treatment Programs) Facility,South Sound Clinic of Evergreen Treatment Services,Olympia,-122.793162,47.0519261,"6700 Martin Way East, Ste. 117"
OTP (Opioid Treatment Programs) Facility,"BAART Behavioral Health Services, Inc.",Port Angeles,-123.4348686,48.1121656,716 S. Chase Street
OTP (Opioid Treatment Programs) Facility,Evergreen Treatment Services South King County Clinic,Renton,-122.2362913,47.4418745,1412 SW 43rd
OTP (Opioid Treatment Programs) Facility,"ORTC, LLC",Richland,-119.2323142,46.236616,1445 Spaulding Ave.
OTP (Opioid Treatment Programs) Facility,FDC SeaTac,SeaTac,-122.3012452,47.4219027,2425 S 200th St
OTP (Opioid Treatment Programs) Facility,"Therapeutic Health Services, Seneca Branch",Seattle,-122.3239238,47.6116781,1305 Seneca St.
OTP (Opioid Treatment Programs) Facility,Therapeutic Health Services-Summit Branch,Seattle,-122.3237147,47.6116203,1116 Summit Ave.
OTP (Opioid Treatment Programs) Facility,Seattle Veterans Administration Medical Center Opioid Treatment Program,Seattle,-122.3102018,47.5621795,"1660 South Columbian Way, Building 24"
OTP (Opioid Treatment Programs) Facility,Jamestown Healing Clinic,Sequim,-123.124072,48.0772263,526 S 9th Ave
OTP (Opioid Treatment Programs) Facility,Therapeutic Health Services - Shoreline,Shoreline,-122.3461273,47.7509782,16715 Aurora Ave North
OTP (Opioid Treatment Programs) Facility,"ORTC, LLC",Spokane,-117.4090855,47.7149989,82 E Francis Ave.
OTP (Opioid Treatment Programs) Facility,"WCHS, Inc.",Spokane,-117.3462968,47.671559,4305 East Trent Avenue
OTP (Opioid Treatment Programs) Facility,Spokane Regional Health District Treatment Services,Spokane,-117.4170054,47.6484519,312 W 8th Avenue
OTP (Opioid Treatment Programs) Facility,"Puyallup Tribal Opioid Clinic, Inc.",Tacoma,-122.4284154,47.2388359,503 East 26th Street
OTP (Opioid Treatment Programs) Facility,Rainier Internal Medicine LLC,Tacoma,-122.5175789,47.2669181,5929 Westgate Blvd. Ste A
OTP (Opioid Treatment Programs) Facility,Northwest Integrated Health - South Tacoma,Tacoma,-122.4827108,47.2229631,3727 South Tacoma Way
OTP (Opioid Treatment Programs) Facility,Veterans Administration Hospital,Tacoma,-122.4936777,47.1972541,"American Lake Dr., Bldg. 61"
OTP (Opioid Treatment Programs) Facility,"Treatment Services - unit 1, Tacoma-Pierce County Health Department",Tacoma,-122.4350129,47.2251673,3629 S D Street
OTP (Opioid Treatment Programs) Facility,Quil Ceda Creek Counseling Company,Tulalip,-122.189613,48.05299,6330 31st Ave NE
OTP (Opioid Treatment Programs) Facility,Hope and Healing Clinic LLC,Tumwater,-122.9423966,46.948845,9474 Lathrop Industrial Dr. SW
OTP (Opioid Treatment Programs) Facility,Columbia River Mental Health Services Center for Dual Diagnosis Recovery,Vancouver,-122.5999774,45.650758,7105 NE 40th St
OTP (Opioid Treatment Programs) Facility,"WCHS, Inc.",Vancouver,-122.651087,45.70559,2009 NE 117th Street
OTP (Opioid Treatment Programs) Facility,Comprehensive Healthcare,Yakima,-120.511731,46.595311,402 South Fourth Ave.
Harm Reduction Resources,Blue Mountain Heart to Heart - Kennewick,Kennewick,-119.3213936,46.206821,8154 Gage Blvd
Harm Reduction Resources,Blue Mountain Heart to Heart - Walla Walla,Walla Walla,-118.3578799,46.0455969,1520 Kelly Place
Harm Reduction Resources,Hepatitis Education Project,Seattle,-122.310538,47.598924,1621 S Jackson St
Harm Reduction Resources,Tacoma Needle Exchange,Tacoma,-122.44523,47.24953,S G St & S 14th St
Harm Reduction Resources,Tacoma Needle Exchange,Tacoma,-122.4350129,47.2251673,3629 S D St
Harm Reduction Resources,Tacoma Needle Exchange,Tacoma,-122.40941,47.23637,Portland Ave E & E Wright Ave
Harm Reduction Resources,Whatcom County Health Department Syringe Exchange,Ferndale,-122.5715527,48.8472859,1675 Main street
Harm Reduction Resources,Whatcom County Health Department Syringe Exchange,Blaine,-122.7306055,48.935277,4581 Birch Bay Lynden Rd
Harm Reduction Resources,The People's Harm Reduction Alliance,Seattle,-122.3138131,47.6628559,4548 Brooklyn Ave NE
Harm Reduction Resources,Blue Mountain Heart to Heart BMH2H,Clarkston,-117.06257,46.41998,1368 Bridge Street Suite A
Harm Reduction Resources,Providence Spokane Teaching Health Clinic,Spokane,-117.40277,47.6604611,624 E Front Ave
Harm Reduction Resources,University of Washington Youth Clinic,Auburn,-122.2193233,47.2990223,1000 Auburn Way S
Harm Reduction Resources,OK Cope,Omak,-119.5037661,48.4227139,1003 Koala Dr
Harm Reduction Resources,M.H.A. SPEAKOUT SPEAKUP,Spokane,-117.40476,47.6555344,418 E PACIFIC AVE
Harm Reduction Resources,Spokane Regional Health Department,Spokane,-117.4283084,47.6630926,1101 W College Ave
Harm Reduction Resources,Lummi HARM Reduction,Bellingham,-122.6347639,48.793812,2592 Kwina Road
Harm Reduction Resources,Clallam County Syringe Services,Port Angeles,-123.43421,48.11726,111 E 3rd St
Harm Reduction Resources,Clallam County Syringe Services,Forks,-124.38686,47.94777,140 C St SW
Harm Reduction Resources,Cowlitz Family Health Center Syringe Exchange,Kelso,-122.90685,46.14217,621 Grade St
Harm Reduction Resources,Emma Goldman Youth and Homeless Outreach Project,Olympia,-122.9004248,47.0456066,180 Washington St NE
Harm Reduction Resources,Grant Integrated Services Syringe Exchange,Moses Lake,-119.2891534,47.1230661,1038 W Ivy Ave
Harm Reduction Resources,Harm Reduction Safe Syringe Services Program - Republic,Republic,-118.738133,48.6491094,147 N Clark Ave
Harm Reduction Resources,Harm Reduction Safe Syringe Services Program - Newport,Newport,-117.04892,48.18631,605 Hwy 20
Harm Reduction Resources,Harm Reduction Safe Syringe Services Program - Colville,Colville,-117.9049889,48.5401984,240 E Dominion
Harm Reduction Resources,Harm Reduction Safe Syringe Services Program - Loon Lake,Loon Lake,-117.6227381,48.0600888,3945 Fir St
Harm Reduction Resources,Harm Reduction Safe Syringe Services Program - Chewelah,Chewelah,-117.71341,48.27612,302 E Main St
Harm Reduction Resources,Jefferson County Public Health Syringe Exchange,Port Townsend,-122.7918672,48.1042317,615 Sheridan St
Harm Reduction Resources,King County Needle Exchange - Robert Clewis Center,Seattle,-122.34869,47.63788,2124 4th Ave
Harm Reduction Resources,King County Needle Exchange - Robert Clewis Center 2,Seattle,-122.3183589,47.6126789,1161 11th Ave
Harm Reduction Resources,Okanogan County Public Health Syringe Exchange,Okanogan,-119.59373,48.35684,1234 S 2nd Ave
Harm Reduction Resources,Phoenix Recovery Services Syringe Exchange - Sedro Woolley,Sedro-Woolley,-122.274385,48.495923,2000 Hospital Dr
Harm Reduction Resources,Phoenix Recovery Services Syringe Exchange - Sedro Woolley,Sedro-Woolley,-122.2295107,48.5035518,715 Pacific St
Harm Reduction Resources,Phoenix Recovery Services Syringe Exchange - Burlington,Burlington,-122.3261147,48.4757454,701 E Fairhaven Ave
Harm Reduction Resources,Phoenix Recovery Services Syringe Exchange - Concrete,Concrete,-121.74758,48.5381,45821 Railroad Ave
Harm Reduction Resources,Phoenix Recovery Services Syringe Exchange - Anacortes,Anacortes,-122.6088666,48.4975087,3001 R Ave
Harm Reduction Resources,Phoenix Recovery Services Syringe Exchange - Marblemount,Marblemount,-121.4315666,48.5281559,60155 WA-20
Harm Reduction Resources,South King County Mobile Medical Unit,Kent,-122.23689,47.38067,220 4th Ave S
Harm Reduction Resources,Thurston County Public Health Syringe Exchange,Olympia,-122.8944595,47.040064,1000 Cherry St SE
Harm Reduction Resources,Whatcom County Health Department Syringe Exchange - Bellingham,Bellingham,-122.4733426,48.7505041,1500 N State St
Harm Reduction Resources,Whatcom County Health Department Syringe Exchange - Maple Falls,Maple Falls,-122.0767833,48.9238734,7509 Mt Baker Hwy
Harm Reduction Resources,Yakima County Syringe Exchange Program,Yakima,-120.49875,46.59368,E Adams St & 3rd St
Harm Reduction Resources,Never Share Syringe Services Program,Ellensburg,-120.5443178,46.9936833,210 N Ruby Street
Harm Reduction Resources,Project Night Light,Seattle,-122.2870211,47.5649907,4212 36th Ave S
Harm Reduction Resources,North King County harm reduction mobile van,Seattle,-122.3421776,47.6145908,2124 4th Ave
Harm Reduction Resources,South King County harm reduction mobile outreach van,Seattle,-122.3421776,47.6145908,2124 4th Ave
Harm Reduction Resources,The Olympia Bupe Clinic,Olympia,-122.88886,47.04049,1011 10th Ave St SE
Harm Reduction Resources,KC OEND - Seattle,Seattle,-122.3358168,47.6007104,210 Alaskan Way S
Harm Reduction Resources,KC OEND - Seattle,Seattle,-122.3303681,47.6182446,1828 Yale Ave
Harm Reduction Resources,KC OEND - Seattle,Seattle,-122.3266367,47.6148062,1520 Bellevue Ave
Harm Reduction Resources,KC OEND - Kent,Kent,-122.2344259,47.3805945,216 W Gowe St
Harm Reduction Resources,Humanistic Hope Coalition,Kelso,-122.91325,46.14219,501 South First Street
Harm Reduction Resources,Northeast Tri County Health District,Republic,-118.73861,48.64912,141 N. Clark Ave Suite 1
Harm Reduction Resources,Tri County Opioid Network,Colville,-117.8903952,48.5408231,1200 E Columbia Ave
